{"version": 0.6, "generator": "Overpass API 0.7.57 93a4d346", "osm3s": {"timestamp_osm_base": "2022-03-13T04:06:12Z", "copyright": "The data included in this document is from www.openstreetmap.org. The data is made available under ODbL."}, "elements": [{"type": "node", "id": 1107464790, "lat": 1.3138534, "lon": 103.9889459, "tags": {"amenity": "cafe", "name": "Killiney Kopitiam"}}, {"type": "node", "id": 1107465018, "lat": 1.314404, "lon": 103.988834, "tags": {"amenity": "cafe", "name": "Temptations Food & Snacks"}}, {"type": "node", "id": 1313941260, "lat": 1.3056033, "lon": 103.9317231, "tags": {"addr:city": "Singapore", "addr:country": "SG", "addr:housenumber": "1206A", "addr:postcode": "449891", "addr:street": "East Coast Parkway", "amenity": "cafe", "email": "cr@singaporewakepark.com", "internet_access": "wlan", "name": "Coastal Rhythm", "opening_hours": "Mo-Fr 10:00-22:00; Sa-Su 09:00-22:00", "outdoor_seating": "yes", "phone": "+65 66363705", "website": "http://www.facebook.com/CoastalRhythm"}}, {"type": "node", "id": 3109381268, "lat": 1.3129222, "lon": 103.9254991, "tags": {"addr:city": "Singapore", "addr:housenumber": "3", "addr:postcode": "457602", "addr:street": "Jalan Jamal", "amenity": "cafe", "brand": "Starbucks", "brand:wikidata": "Q37158", "brand:wikipedia": "en:Starbucks", "cuisine": "coffee_shop", "name": "Starbucks", "official_name": "Starbucks Coffee", "takeaway": "yes"}}, {"type": "node", "id": 3653443348, "lat": 1.3110415, "lon": 103.9013242, "tags": {"addr:street": "Joo Chiat Road", "amenity": "cafe", "name": "Samsim Vietnam Cafe"}}, {"type": "node", "id": 3876294284, "lat": 1.3130468, "lon": 103.9233966, "tags": {"amenity": "cafe", "name": "Craftsmen Coffee", "wheelchair": "yes"}}, {"type": "node", "id": 3890062578, "lat": 1.3142525, "lon": 103.9195276, "tags": {"addr:city": "Singapore", "addr:housenumber": "113", "addr:postcode": "458230", "addr:street": "Frankel Avenue", "amenity": "cafe", "cuisine": "coffee_shop", "name": "Dutch Colony Coffee Co.", "source": "Kaart Ground Survey 2017"}}, {"type": "node", "id": 4274976773, "lat": 1.3011048, "lon": 103.9129616, "tags": {"addr:city": "Singapore", "addr:country": "SG", "addr:housenumber": "1000", "addr:postcode": "449876", "addr:street": "East Coast Parkway", "addr:unit": "#01-01", "amenity": "cafe", "brand": "The Coffee Bean & Tea Leaf", "brand:wikidata": "Q1141384", "brand:wikipedia": "en:The Coffee Bean & Tea Leaf", "cuisine": "coffee_shop", "email": "mcv@coffeebean.com.sg", "name": "The Coffee Bean & Tea Leaf", "opening_hours": "Su-Th 07:30-23:30;Fr,Sa 07:30-25:00", "phone": "64444325", "takeaway": "yes", "website": "https://www.coffeebean.com.sg/"}}, {"type": "node", "id": 4682734908, "lat": 1.308821, "lon": 103.9111615, "tags": {"addr:city": "Singapore", "addr:street": "East Coast Road", "amenity": "cafe", "name": "Penny University", "source": "Kaart Ground Survey 2017"}}, {"type": "node", "id": 4682762221, "lat": 1.3133636, "lon": 103.9276038, "tags": {"addr:street": "Upper East Coast Road", "amenity": "cafe", "name": "Udders & Kook", "source": "Kaart Ground Survey 2017"}}, {"type": "node", "id": 4682762223, "lat": 1.3133841, "lon": 103.9277158, "tags": {"addr:street": "Upper East Coast Road", "amenity": "cafe", "name": "Perle Noire", "source": "Kaart Ground Survey 2017"}}, {"type": "node", "id": 4682762240, "lat": 1.3120175, "lon": 103.9222714, "tags": {"addr:city": "Singapore", "addr:country": "SG", "addr:housenumber": "699E", "addr:postcode": "459061", "addr:street": "East Coast Road", "amenity": "cafe", "contact:email": "contactus@nextdoorspanishcafe.com", "contact:whatsapp": "+65 8168 4009", "cuisine": "spanish;wine", "name": "Next Door Spanish Cafe", "opening_hours": "Mo-We 17:00-22:30; Th-Su 12:00-22:30", "reservation": "yes", "source": "Kaart Ground Survey 2017", "website": "https://www.nextdoorspanishcafe.com/"}}, {"type": "node", "id": 4683825541, "lat": 1.3086334, "lon": 103.9114305, "tags": {"addr:street": "East Coast Road", "amenity": "cafe", "name": "Lelepot", "source": "Kaart Ground Survey 2017"}}, {"type": "node", "id": 4683825542, "lat": 1.308611, "lon": 103.9113547, "tags": {"addr:street": "East Coast Road", "amenity": "cafe", "name": "Madnest", "source": "Kaart Ground Survey 2017"}}, {"type": "node", "id": 4683830799, "lat": 1.307536, "lon": 103.907533, "tags": {"addr:street": "East Coast Road", "amenity": "cafe", "name": "The Drinking Market", "source": "Kaart Ground Survey 2017"}}, {"type": "node", "id": 4684154873, "lat": 1.305511, "lon": 103.9047712, "tags": {"addr:city": "Singapore", "addr:housenumber": "#01-03", "addr:postcode": "428802", "addr:street": "112 East Coast Road, i12 Katong", "amenity": "cafe", "name": "Toast Box", "source": "Kaart Ground Survey 2017"}}, {"type": "node", "id": 4687316800, "lat": 1.3142004, "lon": 103.9195506, "tags": {"addr:street": "Frankel Avenue", "amenity": "cafe", "name": "Cedele", "source": "Kaart Ground Survey 2017"}}, {"type": "node", "id": 4689127008, "lat": 1.3186476, "lon": 103.9095263, "tags": {"addr:city": "Singapore", "addr:country": "SG", "addr:housenumber": "351", "addr:postcode": "419818", "addr:street": "Changi Road", "amenity": "cafe", "email": "enquiries@ffl.com.sg", "name": "Fresh Fruits Lab", "name:en": "Fresh Fruits Lab", "opening_hours": "Su 10:00-22:00; Tu-Th 11:00-22:00; Fr 11:00-22:00; Sa 10:00-23:00", "phone": "+65 66776741", "source": "Kaart Ground Survey 2017", "website": "https://www.ffl.com.sg/"}}, {"type": "node", "id": 4701761355, "lat": 1.3121146, "lon": 103.9111364, "tags": {"addr:street": "Telok Kurau Court", "amenity": "cafe", "name": "JC Don Cafe & Bar", "source": "Kaart Ground Survey 2017"}}, {"type": "node", "id": 4702450069, "lat": 1.3090259, "lon": 103.902448, "tags": {"addr:street": "Joo Chiat Road", "amenity": "cafe", "name": "The Cider Pit", "source": "Kaart Ground Survey 2017"}}, {"type": "node", "id": 4702450076, "lat": 1.3084882, "lon": 103.9029579, "tags": {"addr:street": "Joo Chiat Road", "amenity": "cafe", "name": "Mellvin Coffee Shop", "source": "Kaart Ground Survey 2017"}}, {"type": "node", "id": 4702487311, "lat": 1.3047768, "lon": 103.9029468, "tags": {"addr:street": "East Coast Road", "amenity": "cafe", "shop": "yes", "source": "Kaart Ground Survey 2017"}}, {"type": "node", "id": 4703848361, "lat": 1.3093959, "lon": 103.9024903, "tags": {"addr:street": "Joo Chiat Road", "amenity": "cafe", "name": "Petit Pain", "source": "Kaart Ground Survey 2017"}}, {"type": "node", "id": 4703917514, "lat": 1.3041777, "lon": 103.9024992, "tags": {"addr:street": "East Coast Road", "amenity": "cafe", "name": "MooLooLaBar", "source": "Kaart Ground Survey 2017"}}, {"type": "node", "id": 4729472896, "lat": 1.3090967, "lon": 103.9119992, "tags": {"addr:housenumber": "421", "addr:postcode": "429008", "addr:street": "East Coast Road", "amenity": "cafe", "name": "Oh Deli", "name:en": "Oh Deli", "website": "https://www.ohdeli.com.sg/index.html"}}, {"type": "node", "id": 5414528615, "lat": 1.3072261, "lon": 103.907068, "tags": {"amenity": "cafe", "name": "Chin Mee Chin", "shop": "pastry", "wheelchair": "limited"}}, {"type": "node", "id": 5414652954, "lat": 1.3067005, "lon": 103.9059073, "tags": {"amenity": "cafe", "name": "Cook Book"}}, {"type": "node", "id": 5460067292, "lat": 1.3148033, "lon": 103.9094985}, {"type": "node", "id": 5460067293, "lat": 1.314833, "lon": 103.909601}, {"type": "node", "id": 5460067294, "lat": 1.3147332, "lon": 103.90963}, {"type": "node", "id": 5460067295, "lat": 1.3147035, "lon": 103.9095274}, {"type": "node", "id": 5855474485, "lat": 1.3045356, "lon": 103.9024959, "tags": {"amenity": "cafe", "name": "Beriwell", "opening_hours": "Mo-Su 09:00-23:00"}}, {"type": "node", "id": 5872497585, "lat": 1.305368, "lon": 103.9038974, "tags": {"amenity": "cafe", "name": "Harvest", "opening_hours": "Mo-Su 11:30-21:30"}}, {"type": "node", "id": 5909175099, "lat": 1.30751, "lon": 103.9075495, "tags": {"amenity": "cafe", "name": "Forty Hands", "opening_hours": "Mo-Sa 07:30-22:00; Su 07:30-17:00", "wheelchair": "limited"}}, {"type": "node", "id": 6510909286, "lat": 1.3056739, "lon": 103.9042862, "tags": {"amenity": "cafe", "name": "An A\u00e7ai Affair", "opening_hours": "Mo-Th 12:00-22:00; Fr 12:00-23:30; Sa 10:00-23:30; Su 10:00-22:00"}}, {"type": "node", "id": 6773435668, "lat": 1.3056322, "lon": 103.9049313, "tags": {"addr:city": "Singapore", "addr:housenumber": "#01-02/28", "addr:postcode": "428802", "addr:street": "112 East Coast Road, 112 Katong", "amenity": "cafe", "brand": "Starbucks", "brand:wikidata": "Q37158", "brand:wikipedia": "en:Starbucks", "cuisine": "coffee_shop", "name": "Starbucks", "official_name": "Starbucks Coffee", "takeaway": "yes"}}, {"type": "node", "id": 6888275585, "lat": 1.3198057, "lon": 103.90314, "tags": {"amenity": "cafe", "cuisine": "bubble_tea", "level": "0", "name": "Gong Cha", "takeaway": "only"}}, {"type": "node", "id": 6975908102, "lat": 1.3013829, "lon": 103.905565, "tags": {"addr:city": "Singapore", "addr:housenumber": "#B1-83H", "addr:postcode": "449269", "addr:street": "80 Marine Parade Road, Parkway Parade", "amenity": "cafe", "brand": "The Coffee Bean & Tea Leaf", "brand:wikidata": "Q1141384", "brand:wikipedia": "en:The Coffee Bean & Tea Leaf", "cuisine": "coffee_shop", "level": "2", "name": "The Coffee Bean & Tea Leaf", "takeaway": "yes", "wheelchair": "yes"}}, {"type": "node", "id": 6975908105, "lat": 1.3014767, "lon": 103.9055982, "tags": {"addr:city": "Singapore", "addr:housenumber": "#01-14B", "addr:postcode": "449269", "addr:street": "80 Marine Parade Rd, Parkway Parade", "amenity": "cafe", "level": "2", "name": "Ya Kun Family Cafe", "wheelchair": "yes"}}, {"type": "node", "id": 6975908599, "lat": 1.3011719, "lon": 103.9051965, "tags": {"addr:city": "Singapore", "addr:housenumber": "#B1-112/146", "addr:postcode": "449269", "addr:street": "80 Marine Parade Road, Parkway Parade", "amenity": "cafe", "level": "2", "name": "Toast Box"}}, {"type": "node", "id": 6975908688, "lat": 1.3020216, "lon": 103.9052702, "tags": {"addr:city": "Singapore", "addr:housenumber": "80", "addr:postcode": "449269", "addr:street": "Marine Parade Road #01-10A/B Parkway Parade", "amenity": "cafe", "brand": "Starbucks", "brand:wikidata": "Q37158", "brand:wikipedia": "en:Starbucks", "cuisine": "coffee_shop", "level": "2", "name": "Starbucks", "official_name": "Starbucks Coffee", "takeaway": "yes", "wheelchair": "yes"}}, {"type": "node", "id": 6976045893, "lat": 1.3019847, "lon": 103.905029}, {"type": "node", "id": 6976085385, "lat": 1.3017643, "lon": 103.9051291}, {"type": "node", "id": 6976085386, "lat": 1.3016058, "lon": 103.9051083}, {"type": "node", "id": 6976085485, "lat": 1.3017491, "lon": 103.9052096}, {"type": "node", "id": 6976336795, "lat": 1.3010241, "lon": 103.9048516}, {"type": "node", "id": 6976336796, "lat": 1.301097, "lon": 103.9047775}, {"type": "node", "id": 6976343099, "lat": 1.3011253, "lon": 103.9047584}, {"type": "node", "id": 6976343197, "lat": 1.3010119, "lon": 103.9048326}, {"type": "node", "id": 6976343290, "lat": 1.3010687, "lon": 103.9048627}, {"type": "node", "id": 6976343291, "lat": 1.301124, "lon": 103.9048247}, {"type": "node", "id": 6976343388, "lat": 1.3010581, "lon": 103.9048615}, {"type": "node", "id": 6976343504, "lat": 1.3010436, "lon": 103.904839}, {"type": "node", "id": 6976343505, "lat": 1.3011246, "lon": 103.9048185}, {"type": "node", "id": 6976881386, "lat": 1.3013829, "lon": 103.905565, "tags": {"addr:city": "Singapore", "addr:housenumber": "#B1-83H", "addr:postcode": "449269", "addr:street": "80 Marine Parade Road, Parkway Parade", "amenity": "cafe", "brand": "The Coffee Bean & Tea Leaf", "brand:wikidata": "Q1141384", "brand:wikipedia": "en:The Coffee Bean & Tea Leaf", "cuisine": "coffee_shop", "level": "3", "name": "The Coffee Bean & Tea Leaf", "takeaway": "yes", "wheelchair": "yes"}}, {"type": "node", "id": 6976881485, "lat": 1.3014767, "lon": 103.9055982, "tags": {"addr:city": "Singapore", "addr:housenumber": "#01-14B", "addr:postcode": "449269", "addr:street": "80 Marine Parade Rd, Parkway Parade", "amenity": "cafe", "level": "3", "name": "Ya Kun Family Cafe", "wheelchair": "yes"}}, {"type": "node", "id": 6976881586, "lat": 1.3011719, "lon": 103.9051965, "tags": {"addr:city": "Singapore", "addr:housenumber": "#B1-112/146", "addr:postcode": "449269", "addr:street": "80 Marine Parade Road, Parkway Parade", "amenity": "cafe", "level": "3", "name": "Toast Box"}}, {"type": "node", "id": 6976881688, "lat": 1.3020216, "lon": 103.9052702, "tags": {"addr:city": "Singapore", "addr:housenumber": "80", "addr:postcode": "449269", "addr:street": "Marine Parade Road #01-10A/B Parkway Parade", "amenity": "cafe", "brand": "Starbucks", "brand:wikidata": "Q37158", "brand:wikipedia": "en:Starbucks", "cuisine": "coffee_shop", "level": "3", "name": "Starbucks", "official_name": "Starbucks Coffee", "takeaway": "yes", "wheelchair": "yes"}}, {"type": "node", "id": 6978635810, "lat": 1.3016065, "lon": 103.9053948}, {"type": "node", "id": 6978635811, "lat": 1.3015513, "lon": 103.9053801}, {"type": "node", "id": 6978635812, "lat": 1.301674, "lon": 103.9052066}, {"type": "node", "id": 6978635813, "lat": 1.3016261, "lon": 103.905184}, {"type": "node", "id": 6978635814, "lat": 1.3016472, "lon": 103.9051698}, {"type": "node", "id": 6978635815, "lat": 1.3016164, "lon": 103.9051019}, {"type": "node", "id": 6978635833, "lat": 1.3019498, "lon": 103.9051398}, {"type": "node", "id": 6978635836, "lat": 1.3020198, "lon": 103.9051525}, {"type": "node", "id": 6978637804, "lat": 1.3015678, "lon": 103.9054697}, {"type": "node", "id": 6978637806, "lat": 1.3015425, "lon": 103.9054327}, {"type": "node", "id": 6978637828, "lat": 1.3019716, "lon": 103.9050266}, {"type": "node", "id": 6978637829, "lat": 1.3020413, "lon": 103.9050403}, {"type": "node", "id": 6978637893, "lat": 1.301698, "lon": 103.9052446}, {"type": "node", "id": 6978637995, "lat": 1.301562, "lon": 103.9054912}, {"type": "node", "id": 6978637996, "lat": 1.3015207, "lon": 103.9054009}, {"type": "node", "id": 6978637997, "lat": 1.3016499, "lon": 103.9052218}, {"type": "node", "id": 6978638004, "lat": 1.3020404, "lon": 103.9050401}, {"type": "node", "id": 6978638185, "lat": 1.3015755, "lon": 103.9054158}, {"type": "node", "id": 6982001798, "lat": 1.3011312, "lon": 103.9047225}, {"type": "node", "id": 6982001908, "lat": 1.3010045, "lon": 103.9048373}, {"type": "node", "id": 6982001909, "lat": 1.3009923, "lon": 103.9048183}, {"type": "node", "id": 6982012829, "lat": 1.3017694, "lon": 103.9053386}, {"type": "node", "id": 6982012830, "lat": 1.301709, "lon": 103.9053797}, {"type": "node", "id": 6982021588, "lat": 1.3008498, "lon": 103.9058263}, {"type": "node", "id": 6982021623, "lat": 1.3017558, "lon": 103.9053336}, {"type": "node", "id": 6982021624, "lat": 1.3017464, "lon": 103.9053393}, {"type": "node", "id": 6982021625, "lat": 1.3017203, "lon": 103.9053273}, {"type": "node", "id": 6982021657, "lat": 1.3006898, "lon": 103.9058095}, {"type": "node", "id": 6982021658, "lat": 1.3006926, "lon": 103.9058201}, {"type": "node", "id": 6982021662, "lat": 1.3009986, "lon": 103.9057061}, {"type": "node", "id": 6982024599, "lat": 1.3016635, "lon": 103.9053122}, {"type": "node", "id": 6982024607, "lat": 1.3007794, "lon": 103.9058778}, {"type": "node", "id": 6982024608, "lat": 1.3008578, "lon": 103.9058536}, {"type": "node", "id": 6982024609, "lat": 1.300835, "lon": 103.9057722}, {"type": "node", "id": 6982024610, "lat": 1.3006897, "lon": 103.9058092}, {"type": "node", "id": 6982024614, "lat": 1.3009959, "lon": 103.9057232}, {"type": "node", "id": 6982024688, "lat": 1.3016954, "lon": 103.9052908}, {"type": "node", "id": 6982432906, "lat": 1.3009383, "lon": 103.9056666}, {"type": "node", "id": 6982432907, "lat": 1.3008439, "lon": 103.9056901}, {"type": "node", "id": 6982432908, "lat": 1.3009182, "lon": 103.9057775}, {"type": "node", "id": 6982432909, "lat": 1.3009034, "lon": 103.9057282}, {"type": "node", "id": 6982432910, "lat": 1.3008574, "lon": 103.90574}, {"type": "node", "id": 6982433011, "lat": 1.3009616, "lon": 103.9056509}, {"type": "node", "id": 6982511409, "lat": 1.3016145, "lon": 103.9054997}, {"type": "node", "id": 6982511412, "lat": 1.3016583, "lon": 103.9054699}, {"type": "node", "id": 7082575621, "lat": 1.3049908, "lon": 103.9295433, "tags": {"addr:city": "Singapore", "addr:country": "SG", "addr:housenumber": "1202", "addr:postcode": "449881", "addr:street": "East Coast Parkway", "addr:unit": "#01-01", "amenity": "cafe", "email": "enquiry@enakenak.sg", "name": "Enak Enak Hong Kong Teahouse", "opening_hours": "24/7", "phone": "68765911", "website": "http://www.enakenak.sg/"}}, {"type": "node", "id": 7082575998, "lat": 1.3041866, "lon": 103.9243314, "tags": {"addr:city": "Singapore", "addr:country": "SG", "addr:housenumber": "1110", "addr:postcode": "449880", "addr:street": "East Coast Parkway", "addr:unit": "#01-05/06/07", "amenity": "cafe", "email": "concierge@pscafe.com", "name": "PS. Cafe by the Sea", "opening_hours": "09:30-23:00", "phone": "67089288", "website": "https://www.pscafe.com/"}}, {"type": "node", "id": 7140334378, "lat": 1.298907, "lon": 103.9067174, "tags": {"addr:city": "Singapore", "addr:country": "SG", "addr:housenumber": "920", "addr:postcode": "449875", "addr:street": "East Coast Parkway", "addr:unit": "#01-17", "amenity": "cafe", "brand": "Starbucks", "brand:wikidata": "Q37158", "brand:wikipedia": "en:Starbucks", "cuisine": "coffee_shop", "email": "customer@starbucks.com.sg", "name": "Starbucks", "official_name": "Starbucks Coffee", "opening_hours": "Mo-Th,Su 07:30-23:00;Fr,Sa 07:30-24:00", "phone": "69101211", "takeaway": "yes", "website": "http://www.starbucks.com.sg/"}}, {"type": "node", "id": 7140421893, "lat": 1.2996459, "lon": 103.9071006, "tags": {"addr:city": "Singapore", "addr:country": "SG", "addr:housenumber": "920", "addr:postcode": "449875", "addr:street": "East Coast Parkway", "addr:unit": "#01-09/10", "amenity": "cafe", "email": "bakeryandbar.stmarc@gmail.com", "name": "St. Marc", "opening_hours": "Tu-Fr 11:00-22:00;Sa,Su,Ph 09:00-22:00", "phone": "63421786", "shop": "bakery", "website": "http://saint-marc-sg.com/"}}, {"type": "node", "id": 7302279097, "lat": 1.3093944, "lon": 103.9023011, "tags": {"amenity": "cafe", "name": "Breakfast at Fluffy's"}}, {"type": "node", "id": 7302314215, "lat": 1.2999711, "lon": 103.9075257, "tags": {"addr:city": "Singapore", "addr:country": "SG", "addr:housenumber": "920", "addr:postcode": "449875", "addr:street": "East Coast Parkway", "addr:unit": "#01-01/02", "alt_name": "Kebah Station", "amenity": "cafe", "email": "kebabstation@yahoo.com", "name": "Turkish Cafe", "phone": "+65 96978227", "website": "http://www.kebabstation.sg/"}}, {"type": "node", "id": 7637579955, "lat": 1.3181093, "lon": 103.9068124, "tags": {"addr:city": "Singapore", "addr:country": "SG", "addr:housenumber": "285", "addr:postcode": "419764", "addr:street": "Changi Road", "amenity": "cafe", "name": "Hei Kim Cafe", "name:zh": "\u9ed1\u91d1", "opening_hours": "Mo-Tu 09:00-16:00; Th-Su 09:00-16:00", "phone": "+65 83681707", "website": "https://www.heikim.sg/"}}, {"type": "node", "id": 8496654296, "lat": 1.3197562, "lon": 103.9023701, "tags": {"amenity": "cafe", "cuisine": "bubble_tea", "name": "LiHO", "takeaway": "only"}}, {"type": "node", "id": 9063672917, "lat": 1.3027655, "lon": 103.9058512, "tags": {"addr:city": "Singapore", "addr:housenumber": "83", "addr:postcode": "440083", "addr:street": "Marine Parade Central", "amenity": "cafe", "cuisine": "bubble_tea", "internet_access": "no", "name": "Koi Cafe", "opening_hours": "Mo-Su 09:00-21:00", "opening_hours:covid19": "same", "outdoor_seating": "no", "phone": "6440 4869"}}, {"type": "node", "id": 9063672919, "lat": 1.301731, "lon": 103.9060537, "tags": {"addr:city": "Singapore", "addr:housenumber": "1", "addr:postcode": "449408", "addr:street": "Marine Parade Rd", "air_conditioning": "yes", "amenity": "cafe", "brand": "LiHO TEA", "cuisine": "bubble_tea", "internet_access": "yes", "internet_access:fee": "no", "name": "LiHO TEA", "opening_hours": "Mo-Su 11:00-22:00", "opening_hours:covid19": "same", "outdoor_seating": "no"}}, {"type": "node", "id": 9166226517, "lat": 1.3128196, "lon": 103.9247457, "tags": {"amenity": "cafe", "name": "La Fez Bakery and Cafe"}}, {"type": "way", "id": 567139106, "nodes": [5460067292, 5460067293, 5460067294, 5460067295, 5460067292], "tags": {"addr:city": "Singapore", "addr:housenumber": "334", "addr:postcode": "427999", "addr:street": "Joo Chiat Place", "amenity": "cafe", "building": "yes", "building:levels": "1", "description": "Non-air conditioned eatery with a mix of cuisines", "internet_access": "no", "name": "Fu fa Coffee House", "opening_hours": "Mo-Su 08:00-22:00", "outdoor_seating": "yes", "smoking": "separated"}}, {"type": "way", "id": 745530738, "nodes": [6978635810, 6982511412, 6982511409, 6978637995, 6978637804, 6978637806, 6978637996, 6978635811, 6978638185, 6978635810], "tags": {"addr:city": "Singapore", "addr:housenumber": "#01-14B", "addr:postcode": "449269", "addr:street": "80 Marine Parade Rd, Parkway Parade", "amenity": "cafe", "indoor": "room", "level": "0", "name": "Ya Kun Family Cafe", "room": "cafe"}}, {"type": "way", "id": 745530746, "nodes": [6976085385, 6976085485, 6978637893, 6978635812, 6978637997, 6978635813, 6978635814, 6976085386, 6978635815, 6976085385], "tags": {"amenity": "cafe", "indoor": "room", "level": "0", "name": "PappaRich", "room": "cafe"}}, {"type": "way", "id": 745530768, "nodes": [6978637829, 6978635836, 6978635833, 6978637828, 6976045893, 6978638004, 6978637829], "tags": {"addr:city": "Singapore", "addr:housenumber": "80", "addr:postcode": "449269", "addr:street": "Marine Parade Road #01-10A/B Parkway Parade", "amenity": "cafe", "brand": "Starbucks", "brand:wikidata": "Q37158", "brand:wikipedia": "en:Starbucks", "cuisine": "coffee_shop", "indoor": "room", "level": "0", "name": "Starbucks", "official_name": "Starbucks Coffee", "room": "cafe", "takeaway": "yes"}}, {"type": "way", "id": 746049585, "nodes": [6982001798, 6976343099, 6976336796, 6976343505, 6976343291, 6976343290, 6976343388, 6976343504, 6976336795, 6976343197, 6982001908, 6982001909, 6982001798], "tags": {"amenity": "cafe", "indoor": "room", "level": "1", "name": "Fun Toast", "room": "cafe"}}, {"type": "way", "id": 746052349, "nodes": [6982012830, 6982012829, 6982021623, 6982021624, 6982021625, 6982024688, 6982024599, 6982012830], "tags": {"amenity": "cafe", "brand": "Sharetea", "brand:wikidata": "Q64827032", "cuisine": "bubble_tea", "indoor": "room", "level": "-1", "name": "Sharetea", "name:en": "Sharetea", "name:zh": "\u6b47\u8173\u4ead", "room": "shop", "takeaway": "yes"}}, {"type": "way", "id": 746052362, "nodes": [6982024609, 6982021588, 6982024608, 6982024607, 6982021658, 6982021657, 6982024610, 6982024609], "tags": {"amenity": "cafe", "indoor": "room", "level": "-1", "name": "Kraftwich by Swissbake", "room": "cafe"}}, {"type": "way", "id": 746110477, "nodes": [6982433011, 6982021662, 6982024614, 6982432908, 6982432909, 6982432910, 6982432907, 6982432906, 6982433011], "tags": {"amenity": "cafe", "brand": "The Coffee Bean & Tea Leaf", "brand:wikidata": "Q1141384", "brand:wikipedia": "en:The Coffee Bean & Tea Leaf", "cuisine": "coffee_shop", "indoor": "room", "level": "-1", "name": "The Coffee Bean & Tea Leaf", "room": "cafe", "takeaway": "yes"}}]}