{"version": 0.6, "generator": "Overpass API 0.7.57.1 74a55df1", "osm3s": {"timestamp_osm_base": "2022-03-13T04:07:13Z", "copyright": "The data included in this document is from www.openstreetmap.org. The data is made available under ODbL."}, "elements": [{"type": "node", "id": 391291499, "lat": 1.3817548, "lon": 103.8970993, "tags": {"amenity": "cafe", "check_date:opening_hours": "2021-09-20", "diet:vegetarian": "no", "name": "Coffeeshop", "opening_hours": "Mo-Su 00:00-24:00"}}, {"type": "node", "id": 617987730, "lat": 1.3722892, "lon": 103.8290509, "tags": {"addr:housenumber": "Off upper Thomson", "addr:street": "Jalan Leban", "amenity": "cafe", "atm": "Nearby", "cuisine": "Western/Italian", "description": "Low cost and good grill & pasta", "name": "Grill & Pasta", "phone": "+6590109214", "takeaway": "yes"}}, {"type": "node", "id": 775915340, "lat": 1.4479064, "lon": 103.8194535, "tags": {"addr:city": "Singapore", "addr:housenumber": "#01-22", "addr:postcode": "757713", "addr:street": "Sun Plaza, 30 Sembawang Drive,", "amenity": "cafe", "name": "Starbucks", "outdoor_seating": "yes"}}, {"type": "node", "id": 849538345, "lat": 1.3597337, "lon": 103.7677386}, {"type": "node", "id": 849538350, "lat": 1.3596827, "lon": 103.7677456}, {"type": "node", "id": 849538377, "lat": 1.35969, "lon": 103.7675162}, {"type": "node", "id": 849538386, "lat": 1.3596403, "lon": 103.7675233}, {"type": "node", "id": 849573490, "lat": 1.3589937, "lon": 103.7677506}, {"type": "node", "id": 849573504, "lat": 1.3590176, "lon": 103.7675887}, {"type": "node", "id": 849573507, "lat": 1.3589687, "lon": 103.7675932}, {"type": "node", "id": 849573516, "lat": 1.3590462, "lon": 103.7677446}, {"type": "node", "id": 1029132195, "lat": 1.3388938, "lon": 103.705622, "tags": {"addr:city": "Singapore", "addr:housenumber": "63", "addr:postcode": "648331", "addr:street": "Jurong West Central 3 #03-52/52A Jurong Point", "amenity": "cafe", "brand": "Starbucks", "brand:wikidata": "Q37158", "brand:wikipedia": "en:Starbucks", "cuisine": "coffee_shop", "name": "Starbucks", "official_name": "Starbucks Coffee", "takeaway": "yes"}}, {"type": "node", "id": 1125787979, "lat": 1.3344354, "lon": 103.8427357, "tags": {"amenity": "cafe", "name": "Pines Cafe"}}, {"type": "node", "id": 1129421961, "lat": 1.3405679, "lon": 103.7047998, "tags": {"amenity": "cafe"}}, {"type": "node", "id": 1703872735, "lat": 1.3875539, "lon": 103.8692488, "tags": {"addr:city": "Singapore", "addr:housenumber": "1", "addr:postcode": "807011", "addr:street": "Seletar Rd, Greenwich V", "addr:unit": "02-01", "amenity": "cafe", "brand": "The Coffee Bean & Tea Leaf", "brand:wikidata": "Q1141384", "brand:wikipedia": "en:The Coffee Bean & Tea Leaf", "contact:phone": "+6565557721", "cuisine": "coffee_shop", "name": "The Coffee Bean & Tea Leaf", "opening_hours": "Mo-Su 08:00-23:00", "takeaway": "yes"}}, {"type": "node", "id": 1703872738, "lat": 1.3875441, "lon": 103.8691857, "tags": {"addr:city": "Singapore", "addr:housenumber": "#01-06", "addr:postcode": "807011", "addr:street": "1 Seletar Rd, Greenwich V", "addr:unit": "01-06", "amenity": "cafe", "contact:phone": "68533608", "name": "Toast Box", "opening_hours": "Su-Th 07:30-22:00; Fr-Sa 07:30-22:30; PH 07:30-22:30"}}, {"type": "node", "id": 1711105942, "lat": 1.3308411, "lon": 103.7957118, "tags": {"addr:city": "Singapore", "addr:housename": "Gutrie House", "addr:housenumber": "#01-04", "addr:postcode": "268802", "addr:street": "1 Fifth Avenue, Guthrie House", "amenity": "cafe", "brand": "The Coffee Bean & Tea Leaf", "brand:wikidata": "Q1141384", "brand:wikipedia": "en:The Coffee Bean & Tea Leaf", "cuisine": "coffee_shop", "name": "The Coffee Bean & Tea Leaf", "takeaway": "yes", "website": "https://www.coffeebean.com.sg/"}}, {"type": "node", "id": 1720081333, "lat": 1.3429667, "lon": 103.7972103, "tags": {"amenity": "cafe", "cuisine": "international", "name": "Riders Cafe"}}, {"type": "node", "id": 2421003733, "lat": 1.4352133, "lon": 103.7868133, "tags": {"addr:city": "Singapore", "addr:country": "SG", "addr:housenumber": "900", "addr:postcode": "730900", "addr:street": "South Woodlands Drive", "amenity": "cafe", "brand": "Starbucks", "brand:wikidata": "Q37158", "brand:wikipedia": "en:Starbucks", "cuisine": "coffee_shop", "name": "Starbucks", "official_name": "Starbucks Coffee", "takeaway": "yes"}}, {"type": "node", "id": 2421003734, "lat": 1.4367709, "lon": 103.7865547, "tags": {"addr:city": "Singapore", "addr:housenumber": "30", "addr:postcode": "738343", "addr:street": "Woodlands Avenue 2, #01-7/8/15", "amenity": "cafe", "brand": "Starbucks", "brand:wikidata": "Q37158", "brand:wikipedia": "en:Starbucks", "cuisine": "coffee_shop", "name": "Starbucks", "official_name": "Starbucks Coffee", "outdoor_seating": "yes", "takeaway": "yes"}}, {"type": "node", "id": 2421033267, "lat": 1.3799583, "lon": 103.7641858, "tags": {"amenity": "cafe", "brand": "Starbucks", "brand:wikidata": "Q37158", "brand:wikipedia": "en:Starbucks", "cuisine": "coffee_shop", "name": "Starbucks", "official_name": "Starbucks Coffee", "takeaway": "yes"}}, {"type": "node", "id": 2467357504, "lat": 1.3206734, "lon": 103.7070071}, {"type": "node", "id": 2467357507, "lat": 1.3206811, "lon": 103.7069534}, {"type": "node", "id": 2467357509, "lat": 1.3207028, "lon": 103.7070618}, {"type": "node", "id": 2467357511, "lat": 1.3207088, "lon": 103.7069766}, {"type": "node", "id": 2467357512, "lat": 1.3207108, "lon": 103.7069154}, {"type": "node", "id": 2467357513, "lat": 1.320718, "lon": 103.7069451}, {"type": "node", "id": 2467357515, "lat": 1.3207288, "lon": 103.7069298}, {"type": "node", "id": 2467357516, "lat": 1.3207324, "lon": 103.7070187}, {"type": "node", "id": 2467357517, "lat": 1.3207621, "lon": 103.7070896}, {"type": "node", "id": 2467357518, "lat": 1.3207581, "lon": 103.7070305}, {"type": "node", "id": 2467357520, "lat": 1.3208141, "lon": 103.7070295}, {"type": "node", "id": 2467357521, "lat": 1.3208284, "lon": 103.7070824}, {"type": "node", "id": 2517244454, "lat": 1.347443, "lon": 103.8675719, "tags": {"amenity": "cafe", "cuisine": "ice_cream", "internet_access": "no", "name": "Wimbly Lu"}}, {"type": "node", "id": 2577843571, "lat": 1.3385358, "lon": 103.7053051}, {"type": "node", "id": 2577843572, "lat": 1.3385837, "lon": 103.7054337}, {"type": "node", "id": 2577843573, "lat": 1.3386043, "lon": 103.7052795}, {"type": "node", "id": 2577843575, "lat": 1.3386523, "lon": 103.7054081}, {"type": "node", "id": 2590312790, "lat": 1.4608373, "lon": 103.7641027, "tags": {"addr:city": "Johor Bahru", "addr:housenumber": "106;108", "addr:postcode": "80000", "addr:street": "Jalan Wong Ah Fook", "amenity": "cafe", "brand": "Starbucks", "brand:wikidata": "Q37158", "brand:wikipedia": "en:Starbucks", "cuisine": "coffee_shop", "name": "Starbucks", "name:zh": "\u661f\u5df4\u514b", "official_name": "Starbucks Coffee", "takeaway": "yes"}}, {"type": "node", "id": 2685422045, "lat": 1.4007235, "lon": 103.7894548, "tags": {"amenity": "cafe", "name": "Zebra Cafe"}}, {"type": "node", "id": 3022561819, "lat": 1.3265445, "lon": 103.8527951, "tags": {"addr:city": "Singapore", "addr:housenumber": "28", "addr:postcode": "328781", "addr:street": "Lorong Ampas", "amenity": "cafe", "name": "Wheeler's Yard", "opening_hours": "Tu-Fr 11:00-22:00; Sa,Su 10:30-22:00", "phone": "+65 6254 9128", "website": "https://www.facebook.com/wheelersyard"}}, {"type": "node", "id": 3247461146, "lat": 1.3412375, "lon": 103.8451825, "tags": {"amenity": "cafe", "cuisine": "chicken", "internet_access": "no", "name": "Hawker Centre", "smoking": "separated"}}, {"type": "node", "id": 3294783403, "lat": 1.3330425, "lon": 103.7745425, "tags": {"addr:city": "Singapore", "addr:housenumber": "Blk 58-01-09", "addr:postcode": "599489", "addr:street": "535 Clementi Road, Ngee Ann Polytechnic", "amenity": "cafe", "brand": "The Coffee Bean & Tea Leaf", "brand:wikidata": "Q1141384", "brand:wikipedia": "en:The Coffee Bean & Tea Leaf", "cuisine": "coffee_shop", "name": "The Coffee Bean & Tea Leaf", "takeaway": "yes", "toilets:wheelchair": "yes", "wheelchair": "yes"}}, {"type": "node", "id": 3327929010, "lat": 1.351395, "lon": 103.8616273, "tags": {"amenity": "cafe", "brand": "The Coffee Bean & Tea Leaf", "brand:wikidata": "Q1141384", "brand:wikipedia": "en:The Coffee Bean & Tea Leaf", "cuisine": "coffee_shop", "name": "The Coffee Bean & Tea Leaf", "takeaway": "yes"}}, {"type": "node", "id": 3339866877, "lat": 1.345268, "lon": 103.6960335, "tags": {"addr:housenumber": "815", "amenity": "cafe", "cuisine": "coffee_shop", "internet_access": "no", "name": "BLK 815 Coffee Shop"}}, {"type": "node", "id": 3339866878, "lat": 1.3466489, "lon": 103.6926915, "tags": {"addr:city": "Singapore", "addr:housenumber": "851", "addr:postcode": "640851", "addr:street": "Jurong West Street 81", "amenity": "cafe", "cuisine": "coffee_shop", "internet_access": "no", "name": "Blk 851 Coffee Shop"}}, {"type": "node", "id": 3355441060, "lat": 1.332407, "lon": 103.743168, "tags": {"amenity": "cafe", "cuisine": "coffee_shop", "internet_access": "yes", "name": "Toast Box"}}, {"type": "node", "id": 3355457221, "lat": 1.3421059, "lon": 103.6928313, "tags": {"amenity": "cafe", "cuisine": "coffee_shop", "opening_hours": "24/7", "smoking": "isolated"}}, {"type": "node", "id": 3448389061, "lat": 1.4565068, "lon": 103.7636781, "tags": {"amenity": "cafe", "name": "Mariners Cafe", "name:en": "Mariners Cafe"}}, {"type": "node", "id": 3448389079, "lat": 1.4564965, "lon": 103.7640067, "tags": {"amenity": "cafe", "name": "Chaiwalla & Co"}}, {"type": "node", "id": 3498346534, "lat": 1.3341442, "lon": 103.8895358, "tags": {"addr:city": "Singapore", "addr:housenumber": "30", "addr:postcode": "534013", "addr:street": "Tai Seng Street", "amenity": "cafe", "cuisine": "Nanyang_Coffee", "internet_access": "wlan", "level": "1", "name": "Toastbox", "smoking": "no"}}, {"type": "node", "id": 3514886513, "lat": 1.3337232, "lon": 103.7767091, "tags": {"amenity": "cafe", "cuisine": "coffee_shop", "internet_access": "yes", "name": "Toast Box"}}, {"type": "node", "id": 3681772655, "lat": 1.3395564, "lon": 103.7070854, "tags": {"addr:city": "Singapore", "addr:housenumber": "#01-16E", "addr:postcode": "c", "addr:street": "1 Jurong West Central, Jurong Point", "amenity": "cafe", "brand": "The Coffee Bean & Tea Leaf", "brand:wikidata": "Q1141384", "brand:wikipedia": "en:The Coffee Bean & Tea Leaf", "cuisine": "coffee_shop", "name": "The Coffee Bean & Tea Leaf", "takeaway": "yes"}}, {"type": "node", "id": 3681773961, "lat": 1.3387641, "lon": 103.7061742, "tags": {"amenity": "cafe", "cuisine": "bubble_tea", "name": "Koi Express"}}, {"type": "node", "id": 3819333549, "lat": 1.3363877, "lon": 103.7681279, "tags": {"addr:city": "Singapore", "addr:housenumber": "21", "addr:postcode": "598993", "addr:street": "Eng Kong Terrace", "amenity": "cafe", "cuisine": "pizza;coffee_shop;sandwich;bread", "name": "Baker & Cook", "opening_hours": "Mo-Su 07:30-22:00", "outdoor_seating": "yes", "phone": "+65 6219 3220", "website": "https://www.bakerandcook.biz/blogs/locations/coming-soon-1"}}, {"type": "node", "id": 3819961288, "lat": 1.3375682, "lon": 103.7937623, "tags": {"addr:city": "Singapore", "addr:housenumber": "200", "addr:postcode": "287994", "addr:street": "Turf Club Road", "amenity": "cafe", "name": "Maison Kayser", "phone": "+65 6468 7172", "website": "https://www.maison-kayser.com/"}}, {"type": "node", "id": 3922461042, "lat": 1.3469027, "lon": 103.6801219, "tags": {"addr:city": "Singapore", "addr:housenumber": "#01-06", "addr:postcode": "637331", "addr:street": "76 Nanyang Drive", "amenity": "cafe", "brand": "Starbucks", "brand:wikidata": "Q37158", "brand:wikipedia": "en:Starbucks", "cuisine": "coffee_shop", "level": "1", "name": "Starbucks", "official_name": "Starbucks Coffee", "takeaway": "yes"}}, {"type": "node", "id": 3922463562, "lat": 1.3441917, "lon": 103.6804846, "tags": {"addr:city": "Singapore", "addr:housenumber": "SS1-01-05/SS1-01-05A (Opposite Nanyang Auditorium", "addr:postcode": "639798", "addr:street": "50 Nanyang Avenue, Nanyang Technological University", "amenity": "cafe", "cuisine": "coffee_shop", "name": "The Coffee Bean and Tea Leaf"}}, {"type": "node", "id": 3922463563, "lat": 1.3496947, "lon": 103.6838395, "tags": {"amenity": "cafe", "name": "Art Pastry @ ADM"}}, {"type": "node", "id": 3924788014, "lat": 1.3799561, "lon": 103.7644596, "tags": {"amenity": "cafe", "cuisine": "bubble_tea", "name": "Li-Ho"}}, {"type": "node", "id": 3924788022, "lat": 1.3801583, "lon": 103.7643445, "tags": {"amenity": "cafe", "name": "Mr Bean"}}, {"type": "node", "id": 3924939076, "lat": 1.3799401, "lon": 103.7605089, "tags": {"amenity": "cafe", "name": "Fun Toast"}}, {"type": "node", "id": 3931806104, "lat": 1.3847937, "lon": 103.7448801, "tags": {"amenity": "cafe", "name": "BlackBall"}}, {"type": "node", "id": 3938018074, "lat": 1.429839, "lon": 103.8362533, "tags": {"addr:city": "Singapore", "addr:country": "SG", "addr:housenumber": "51", "addr:postcode": "768794", "addr:street": "Yishun Central 1", "amenity": "cafe", "name": "Koi Cafe"}}, {"type": "node", "id": 3939996352, "lat": 1.3844797, "lon": 103.7443488, "tags": {"amenity": "cafe", "name": "Mr Bean"}}, {"type": "node", "id": 3939996353, "lat": 1.3844745, "lon": 103.7443915, "tags": {"amenity": "cafe", "name": "KOI Th\u00e9"}}, {"type": "node", "id": 3941996106, "lat": 1.3631363, "lon": 103.7645182, "tags": {"addr:city": "Singapore", "addr:housenumber": "4", "addr:postcode": "667979", "addr:street": "Hillview Rise", "amenity": "cafe", "brand": "Starbucks", "brand:wikidata": "Q37158", "brand:wikipedia": "en:Starbucks", "cuisine": "coffee_shop", "internet_access": "yes", "internet_access:fee": "no", "name": "Starbucks", "official_name": "Starbucks Coffee", "opening_hours": "08:00-23:00", "outdoor_seating": "no", "takeaway": "yes"}}, {"type": "node", "id": 3987288129, "lat": 1.351474, "lon": 103.8353851, "tags": {"addr:housenumber": "185", "addr:postcode": "574333", "addr:street": "Upper Thomson Road", "amenity": "cafe", "internet_access": "wlan", "internet_access:fee": "no", "name": "Pacamara Boutique Coffee Roasters", "opening_hours": "Mo-Su 09:00-23:00", "website": "https://pacamara.sg"}}, {"type": "node", "id": 3987288993, "lat": 1.3527826, "lon": 103.8345094, "tags": {"addr:city": "Singapore", "addr:housenumber": "223", "addr:postcode": "574355", "addr:street": "Upper Thomson Road", "amenity": "cafe", "name": "Habitat Coffee", "opening_hours": "Tu-Su 10:00-22:00", "phone": "+6564562567", "source": "Kaart Ground Survey 2017", "website": "http://habitatcoffee.com.sg"}}, {"type": "node", "id": 4223066790, "lat": 1.3285419, "lon": 103.6940775, "tags": {"addr:housenumber": "26", "addr:postcode": "628776", "addr:street": "Kian Teck Avenue", "amenity": "cafe", "name": "Foot code"}}, {"type": "node", "id": 4228222259, "lat": 1.3480225, "lon": 103.7435784, "tags": {"amenity": "cafe", "cuisine": "asian", "internet_access": "wlan", "name": "Cafeteria"}}, {"type": "node", "id": 4230452489, "lat": 1.332626, "lon": 103.8488573, "tags": {"addr:housenumber": "Block 490", "addr:postcode": "310490", "addr:street": "Lorong 6 Toa Payoh #01-14, Singapore", "amenity": "cafe", "brand": "Starbucks", "cuisine": "coffee_shop", "level": "0", "name": "Starbucks", "official_name": "Starbucks Coffee", "takeaway": "yes"}}, {"type": "node", "id": 4336489191, "lat": 1.3752734, "lon": 103.8970042, "tags": {"amenity": "cafe", "name": "Kopitiam 24h coffee shop", "opening_hours": "24/7"}}, {"type": "node", "id": 4353385858, "lat": 1.3306316, "lon": 103.7957476, "tags": {"addr:city": "Singapore", "addr:housenumber": "1", "addr:postcode": "268802", "addr:street": "Fifth Avenue", "addr:unit": "#01-03", "air_conditioning": "yes", "amenity": "cafe", "cuisine": "coffee_shop;bread;bakery", "delivery": "yes", "email": "deborah@simplybread.com.sg", "internet_access": "no", "level": "0", "name": "Simply Bread", "note": "Bread, pastries, coffee, sandwiches, salads, breakfast", "opening_hours": "Mo-Su 08:00-19:00", "outdoor_seating": "no", "smoking": "no", "takeaway": "yes", "website": "https://simplybread.oddle.me/en_SG", "wheelchair": "yes"}}, {"type": "node", "id": 4374327295, "lat": 1.3294941, "lon": 103.652156, "tags": {"amenity": "cafe"}}, {"type": "node", "id": 4376753891, "lat": 1.4710071, "lon": 103.7832801, "tags": {"amenity": "cafe", "brand": "Starbucks", "brand:wikidata": "Q37158", "brand:wikipedia": "en:Starbucks", "cuisine": "coffee_shop", "name": "Starbucks", "name:en": "Starbucks", "name:zh": "\u661f\u5df4\u514b", "official_name": "Starbucks Coffee", "takeaway": "yes"}}, {"type": "node", "id": 4382759297, "lat": 1.4566426, "lon": 103.7639854, "tags": {"addr:housenumber": "8", "addr:postcode": "80000", "addr:street": "Jln Tan Hiok Nee", "amenity": "cafe", "name": "Restoran Kin Hua", "name:en": "Restoran Kin Hua", "opening_hours": "Mo-Su 07:00-18:00"}}, {"type": "node", "id": 4382775589, "lat": 1.457367, "lon": 103.7642817, "tags": {"addr:housenumber": "131", "addr:postcode": "80000", "addr:street": "Jalan Trus", "amenity": "cafe", "name": "Restoran Hua Mui \u83ef\u7f8e\u8336\u9910\u5ba4", "name:en": "Restoran Hua Mui \u83ef\u7f8e\u8336\u9910\u5ba4", "opening_hours": "Mo-Su 08:00-18:00"}}, {"type": "node", "id": 4382775590, "lat": 1.4568153, "lon": 103.764366, "tags": {"addr:housenumber": "8", "addr:postcode": "80000", "addr:street": "Jalan Trus", "amenity": "cafe", "cuisine": "kaya_toast", "name": "Restoran Kin Hua", "name:zh": "\u9526\u534e\u8336\u9910\u5ba4", "opening_hours": "Mo-Su 07:00-18:00"}}, {"type": "node", "id": 4400909650, "lat": 1.4045831, "lon": 103.7906672, "tags": {"amenity": "cafe", "name": "Inuka Cafe"}}, {"type": "node", "id": 4425687890, "lat": 1.4187636, "lon": 103.835592, "tags": {"amenity": "cafe", "name": "618 Sim Carrot Cake"}}, {"type": "node", "id": 4450165121, "lat": 1.4626052, "lon": 103.7637852, "tags": {"amenity": "cafe", "brand": "OldTown White Coffee", "brand:wikidata": "Q7085308", "brand:wikipedia": "en:OldTown White Coffee", "cuisine": "coffee_shop;malaysian", "level": "2", "name": "OldTown White Coffee", "takeaway": "yes"}}, {"type": "node", "id": 4496275690, "lat": 1.3273019, "lon": 103.6780283, "tags": {"addr:housenumber": "1, #02-26/27/28", "addr:postcode": "629117", "amenity": "cafe", "cuisine": "international", "name": "Han's Cafe & Cake House", "name:en": "Han's Cafe & Cake House", "opening_hours": "Mo-Su 08:00-21:00", "operator": "Han's Cafe"}}, {"type": "node", "id": 4501136887, "lat": 1.4082409, "lon": 103.8677395}, {"type": "node", "id": 4501136891, "lat": 1.4082534, "lon": 103.8678057}, {"type": "node", "id": 4501136927, "lat": 1.4084045, "lon": 103.8677087}, {"type": "node", "id": 4501136931, "lat": 1.4084169, "lon": 103.8677748}, {"type": "node", "id": 4509930591, "lat": 1.3516267, "lon": 103.7256019, "tags": {"addr:postcode": "640428", "amenity": "cafe", "name": "D'life - Vegetarian", "opening_hours": "Mo-Su 10:00-22:00", "phone": "+65 64250128"}}, {"type": "node", "id": 4533916791, "lat": 1.4569356, "lon": 103.7637568, "tags": {"amenity": "cafe", "name": "sangkaya jalan dhoby", "name:en": "sangkaya jalan dhoby"}}, {"type": "node", "id": 4535010491, "lat": 1.4570997, "lon": 103.7638235, "tags": {"amenity": "cafe", "name": "the replacement - lodge & kitchen", "opening_hours": "Mo-Su 09:00-20:00"}}, {"type": "node", "id": 4538844762, "lat": 1.3238966, "lon": 103.7967709, "tags": {"addr:city": "Singapore", "addr:housenumber": "64", "addr:postcode": "267208", "addr:street": "Namly Place", "amenity": "cafe", "name": "Baker & Cook", "opening_hours": "07:30-22:00", "phone": "+65 6466 2208", "website": "https://www.bakerandcook.biz/"}}, {"type": "node", "id": 4554443833, "lat": 1.3798455, "lon": 103.7644037, "tags": {"amenity": "cafe", "name": "Boost"}}, {"type": "node", "id": 4605978589, "lat": 1.3202983, "lon": 103.8434069, "tags": {"addr:unit": "15", "amenity": "cafe", "brand": "Toast Box", "brand:wikidata": "Q100285490", "cuisine": "coffee_shop", "level": "0", "name": "Toast Box", "name:en": "Toast Box", "takeaway": "yes"}}, {"type": "node", "id": 4634033882, "lat": 1.329031, "lon": 103.8869731, "tags": {"amenity": "cafe", "cuisine": "regional", "name": "Heong Hock Cafe"}}, {"type": "node", "id": 4638215531, "lat": 1.3432489, "lon": 103.6825786, "tags": {"amenity": "cafe", "name": "Co-op@NTU Cafe"}}, {"type": "node", "id": 4668473953, "lat": 1.4638868, "lon": 103.7643476, "tags": {"amenity": "cafe", "brand": "Starbucks", "brand:wikidata": "Q37158", "brand:wikipedia": "en:Starbucks", "cuisine": "coffee_shop", "name": "Starbucks", "name:zh": "\u661f\u5df4\u514b", "official_name": "Starbucks Coffee", "takeaway": "yes"}}, {"type": "node", "id": 4668473954, "lat": 1.4629145, "lon": 103.7636063, "tags": {"amenity": "cafe", "brand": "Starbucks", "brand:wikidata": "Q37158", "brand:wikipedia": "en:Starbucks", "cuisine": "coffee_shop", "name": "Starbucks", "name:zh": "\u661f\u5df4\u514b", "official_name": "Starbucks Coffee", "takeaway": "yes"}}, {"type": "node", "id": 4689949649, "lat": 1.3782411, "lon": 103.7627567, "tags": {"amenity": "cafe", "name": "Koi Cafe"}}, {"type": "node", "id": 4703167414, "lat": 1.3783787, "lon": 103.7627101, "tags": {"addr:city": "Singapore", "addr:housenumber": "17", "addr:postcode": "678278", "addr:street": "Petir Road, #B1 \u2013 28/29/30 Hillion Mall", "amenity": "cafe", "brand": "Starbucks", "brand:wikidata": "Q37158", "brand:wikipedia": "en:Starbucks", "cuisine": "coffee_shop", "name": "Starbucks", "official_name": "Starbucks Coffee", "outdoor_seating": "no", "takeaway": "yes"}}, {"type": "node", "id": 4703167426, "lat": 1.3785933, "lon": 103.7636183, "tags": {"amenity": "cafe", "name": "Tuk Tuk Cha"}}, {"type": "node", "id": 4703167428, "lat": 1.3783047, "lon": 103.7626833, "tags": {"addr:city": "Singpore", "addr:housenumber": "#B2-23/24", "addr:postcode": "678278", "addr:street": "17 Petir Road, Hillion Mall", "amenity": "cafe", "brand": "Ya Kun Kaya Toast", "brand:wikidata": "Q8046237", "brand:wikipedia": "en:Ya Kun Kaya Toast", "cuisine": "coffee_shop", "name": "Ya Kun Kaya Toast", "takeaway": "yes"}}, {"type": "node", "id": 4708392093, "lat": 1.4564554, "lon": 103.763547, "tags": {"addr:housenumber": "54", "addr:street": "Jln Tan Hiok Nee", "amenity": "cafe", "name:en": "Bev C'afe"}}, {"type": "node", "id": 4709073335, "lat": 1.3335084, "lon": 103.8923394, "tags": {"addr:street": "Ubi Avenue 4", "amenity": "cafe", "name": "C&L Cafe", "source": "Kaart Ground Survey 2017"}}, {"type": "node", "id": 4712291755, "lat": 1.3621379, "lon": 103.8852584, "tags": {"addr:street": "Simon Road", "amenity": "cafe", "name": "Ice Edge Cafe", "source": "Kaart Ground Survey 2017", "wheelchair": "limited"}}, {"type": "node", "id": 4712972593, "lat": 1.3735278, "lon": 103.8377916, "tags": {"amenity": "cafe", "name": "Mad Cow cafe", "name:en": "Mad Cow cafe"}}, {"type": "node", "id": 4715290933, "lat": 1.3236266, "lon": 103.8103227, "tags": {"addr:street": "Coronation Road", "addr:unit": "#01-03", "amenity": "cafe", "cuisine": "coffee_shop", "name": "Starbucks", "name:en": "Starbucks", "name:zh": "\u661f\u5df4\u514b", "operator": "Starbucks", "outdoor_seating": "yes", "smoking": "outside", "source": "Kaart Ground Survey 2017"}}, {"type": "node", "id": 4715369282, "lat": 1.3229369, "lon": 103.8120098, "tags": {"addr:street": "Duke's Road", "amenity": "cafe", "name": "Atlas Coffee House", "source": "Kaart Ground Survey 2017"}}, {"type": "node", "id": 4715487775, "lat": 1.3319868, "lon": 103.8824273, "tags": {"addr:street": "MacPherson Road", "amenity": "cafe", "name": "5388 Coffee House", "source": "Kaart Ground Survey 2017"}}, {"type": "node", "id": 4715487776, "lat": 1.3319573, "lon": 103.8822856, "tags": {"addr:street": "MacPherson Road", "amenity": "cafe", "name": "Delicious Coffee Shop", "source": "Kaart Ground Survey 2017"}}, {"type": "node", "id": 4715761688, "lat": 1.3389921, "lon": 103.8860514, "tags": {"addr:street": "Jalan Bunga Rampai", "amenity": "cafe", "name": "Yong Fu Coffee Shop", "source": "Kaart Ground Survey 2017"}}, {"type": "node", "id": 4723114957, "lat": 1.3652584, "lon": 103.8661529, "tags": {"addr:street": "Kensington Park Road", "amenity": "cafe", "name": "Two Tall Trees", "source": "Kaart Ground Survey 2017"}}, {"type": "node", "id": 4723193886, "lat": 1.458145, "lon": 103.8377391, "tags": {"addr:street": "Andrews Avenue", "amenity": "cafe", "name": "Woody Family Cafe", "source": "Kaart Ground Survey 2017"}}, {"type": "node", "id": 4726868800, "lat": 1.3519435, "lon": 103.8351973, "tags": {"addr:city": "Singapore", "addr:street": "Upper Thomson Road", "amenity": "cafe", "name": "Cafe Etc.", "source": "Kaart Ground Survey 2017"}}, {"type": "node", "id": 4729031890, "lat": 1.3225068, "lon": 103.8136612, "tags": {"addr:housenumber": "10", "addr:postcode": "258748", "addr:street": "Jalan Serene", "amenity": "cafe", "name": "Island Creamery (Serene Centre)", "name:en": "Island Creamery (Serene Centre)", "opening_hours": "Mo-Su 11:00-22:00", "website": "http://www.islandcreamery.com/"}}, {"type": "node", "id": 4729409689, "lat": 1.3616561, "lon": 103.8859446, "tags": {"addr:housenumber": "5", "addr:postcode": "545893", "addr:street": "Simon Road", "amenity": "cafe", "name": "Lola's Cafe", "name:en": "Lola's Cafe", "opening_hours": "Su, Tu-Th 10:00-23:30; Fr 10:00-00:00", "phone": "+6562840349", "toilets:wheelchair": "yes", "website": "http://lolascafe.com.sg/", "wheelchair": "yes"}}, {"type": "node", "id": 4734935249, "lat": 1.3408716, "lon": 103.7724164, "tags": {"addr:city": "Singapore", "addr:street": "Lorong Kilat", "amenity": "cafe", "name": "Flagwhite", "source": "Reconocimiento terrestre por Kaart 2017"}}, {"type": "node", "id": 4735055775, "lat": 1.4552645, "lon": 103.8146547, "tags": {"addr:street": "Sembawang Drive", "amenity": "cafe", "name": "White Coffee", "source": "Kaart Ground Survey 2017"}}, {"type": "node", "id": 4735281561, "lat": 1.3534156, "lon": 103.8335152, "tags": {"amenity": "cafe", "cuisine": "cake", "name": "DINO", "source": "Kaart Ground Survey 2017"}}, {"type": "node", "id": 4740253735, "lat": 1.4505576, "lon": 103.7919449, "tags": {"addr:street": "Woodlands Industrial Park E5", "amenity": "cafe", "name": "280 Cafe", "source": "Kaart Ground Survey 2017"}}, {"type": "node", "id": 4749181554, "lat": 1.3241644, "lon": 103.8529145, "tags": {"addr:street": "Kim Keat Road", "amenity": "cafe", "name": "Happy Owl", "source": "Kaart Ground Survey 2017"}}, {"type": "node", "id": 4749248049, "lat": 1.3528609, "lon": 103.834437, "tags": {"addr:city": "Singapore", "addr:street": "Upper Thomson Road", "addr:unit": "227", "amenity": "cafe", "level": "0", "name": "Hello Arigato"}}, {"type": "node", "id": 4749248050, "lat": 1.3528994, "lon": 103.8343802, "tags": {"addr:city": "Singapore", "addr:street": "Upper Thomson Road", "amenity": "cafe", "name": "Bakery House Cafe", "source": "Kaart Ground Survey 2017"}}, {"type": "node", "id": 4751149020, "lat": 1.3469199, "lon": 103.6807718, "tags": {"amenity": "cafe", "name": "Each-A-Cup"}}, {"type": "node", "id": 4755243794, "lat": 1.344709, "lon": 103.6783322, "tags": {"amenity": "cafe", "name": "O' Briens Irish Sandwich Cafe"}}, {"type": "node", "id": 4763858421, "lat": 1.3724755, "lon": 103.8556948, "tags": {"amenity": "cafe", "name": "Twenty Grammes", "name:en": "Twenty Grammes"}}, {"type": "node", "id": 4794899113, "lat": 1.3226108, "lon": 103.814499, "tags": {"amenity": "cafe", "name": "Gastronomia"}}, {"type": "node", "id": 4836072451, "lat": 1.392511, "lon": 103.8949358, "tags": {"addr:city": "Singapore", "addr:country": "SG", "addr:housenumber": "1", "addr:postcode": "545078", "addr:street": "Sengkang Square, Compass One", "amenity": "cafe", "branch": "Compass One", "brand": "Starbucks", "brand:wikidata": "Q37158", "brand:wikipedia": "en:Starbucks", "cuisine": "coffee_shop", "internet_access": "yes", "level": "0", "name": "Starbucks", "official_name": "Starbucks Coffee", "opening_hours": "Su-Th 08:00-22:30; PH -1 day,Fr-Sa 08:00-23:30", "phone": "+65 6910 1321", "smoking": "no", "takeaway": "yes", "website": "https://www.starbucks.com.sg/"}}, {"type": "node", "id": 4837878623, "lat": 1.3363075, "lon": 103.888631, "tags": {"addr:city": "Singapore", "addr:country": "SG", "addr:housenumber": "18", "addr:postcode": "539775", "addr:street": "Tai Seng Street", "addr:unit": "#B1-01", "amenity": "cafe", "level": "-1", "name": "Fun Toast"}}, {"type": "node", "id": 4837878625, "lat": 1.3363468, "lon": 103.8887173, "tags": {"addr:city": "Singapore", "addr:country": "SG", "addr:housenumber": "18", "addr:postcode": "539775", "addr:street": "Tai Seng Street", "addr:unit": "#B1-11", "amenity": "cafe", "level": "-1", "name": "Gong Cha"}}, {"type": "node", "id": 4913953581, "lat": 1.3436331, "lon": 103.6833192, "tags": {"amenity": "cafe", "name": "LiHO"}}, {"type": "node", "id": 4915952646, "lat": 1.4299666, "lon": 103.835835, "tags": {"amenity": "cafe", "name": "LiHO"}}, {"type": "node", "id": 4926676213, "lat": 1.4368561, "lon": 103.786756, "tags": {"amenity": "cafe", "name": "Koi The"}}, {"type": "node", "id": 4967834209, "lat": 1.3918488, "lon": 103.8948049, "tags": {"addr:city": "Singapore", "addr:housenumber": "1", "addr:postcode": "545078", "addr:street": "Sengkang Square", "amenity": "cafe", "brand": "Ya Kun Kaya Toast", "brand:wikidata": "Q8046237", "brand:wikipedia": "en:Ya Kun Kaya Toast", "cuisine": "coffee_shop;regional", "facebook": "https://www.facebook.com/yakunkayatoastsg/", "level": "0", "name": "Ya Kun Family Caf\u00e9", "name:zh": "\u4e9e\u5764", "opening_hours": "Mo-Su 07:30-22:00", "outdoor_seating": "no", "phone": "+65 6386 4165", "smoking": "no", "takeaway": "yes", "website": "https://www.yakun.com/"}}, {"type": "node", "id": 4978777421, "lat": 1.3550914, "lon": 103.8308803, "tags": {"addr:city": "Singapore", "addr:housenumber": "301", "addr:postcode": "574408", "addr:street": "Upper Thomson Road #01-37A Thomson Plaza", "amenity": "cafe", "brand": "Starbucks", "brand:wikidata": "Q37158", "brand:wikipedia": "en:Starbucks", "cuisine": "coffee_shop", "level": "0", "name": "Starbucks", "official_name": "Starbucks Coffee", "outdoor_seating": "yes", "takeaway": "yes"}}, {"type": "node", "id": 4991316023, "lat": 1.456784, "lon": 103.7636518, "tags": {"amenity": "cafe", "name": "It Roo cafe famous chicken chop", "name:en": "It Roo cafe famous chicken chop"}}, {"type": "node", "id": 5013876635, "lat": 1.3799023, "lon": 103.8494745, "tags": {"addr:city": "Singapore", "addr:housenumber": "180", "addr:postcode": "569830", "addr:street": "Ang Mo Kio Ave 8", "amenity": "cafe", "cuisine": "coffee_shop;coffee", "level": "2", "level:ref": "4", "name": "L\u2019Cafe", "opening_hours": "Mo-Fr 09:30-19:00, Sa off, Su off", "outdoor_seating": "no", "smoking": "no"}}, {"type": "node", "id": 5028921124, "lat": 1.46048, "lon": 103.7635361, "tags": {"addr:street": "Jalan Trus", "amenity": "cafe", "cuisine": "chinese;ice_cream;friture;coffee_shop", "internet_access": "wlan", "name": "F.o.C. Faculty of Caffeine", "name:de": "F.o.C. Faculty of Caffeine"}}, {"type": "node", "id": 5124045825, "lat": 1.4571577, "lon": 103.7642191, "tags": {"amenity": "cafe", "name": "roost"}}, {"type": "node", "id": 5143919577, "lat": 1.3206937, "lon": 103.7069326}, {"type": "node", "id": 5143919578, "lat": 1.3206736, "lon": 103.7069765}, {"type": "node", "id": 5143919579, "lat": 1.3206831, "lon": 103.707036}, {"type": "node", "id": 5143919580, "lat": 1.3207957, "lon": 103.7070906}, {"type": "node", "id": 5143919581, "lat": 1.32073, "lon": 103.7070794}, {"type": "node", "id": 5143919582, "lat": 1.3207862, "lon": 103.7070342}, {"type": "node", "id": 5143919583, "lat": 1.3207109, "lon": 103.7069601}, {"type": "node", "id": 5143919584, "lat": 1.320712, "lon": 103.7069929}, {"type": "node", "id": 5143919585, "lat": 1.3207202, "lon": 103.7070074}, {"type": "node", "id": 5265296287, "lat": 1.3716078, "lon": 103.8935834, "tags": {"amenity": "cafe", "cuisine": "bubble_tea", "level": "0", "name": "Kung Fu Tea", "name:zh": "\u624b\u4f5c\u529f\u592b\u8336", "takeaway": "only"}}, {"type": "node", "id": 5265296300, "lat": 1.3722657, "lon": 103.8939302, "tags": {"addr:city": "Singapore", "addr:housenumber": "#B1-29/K12-15/K17", "addr:postcode": "538766", "addr:street": "90 Hougang Avenue 10, Hougang Mall", "amenity": "cafe", "brand": "Toast Box", "brand:wikidata": "Q100285490", "cuisine": "coffee_shop", "name": "Toast Box", "takeaway": "yes"}}, {"type": "node", "id": 5265451724, "lat": 1.3749421, "lon": 103.8829002, "tags": {"amenity": "cafe", "name": "SOD Cafe"}}, {"type": "node", "id": 5302915238, "lat": 1.3741007, "lon": 103.8910564, "tags": {"amenity": "cafe", "name": "Coffee Shop"}}, {"type": "node", "id": 5302915239, "lat": 1.3754593, "lon": 103.8910657, "tags": {"amenity": "cafe", "name": "Coffee Shop"}}, {"type": "node", "id": 5370142867, "lat": 1.3384713, "lon": 103.6988104, "tags": {"amenity": "cafe", "name": "Mr Bean"}}, {"type": "node", "id": 5442605723, "lat": 1.4398747, "lon": 103.8004941, "tags": {"addr:city": "Singapore", "addr:housenumber": "Blk 676", "addr:postcode": "730676", "addr:street": "Woodlands Drive 71, Kampung Admiralty #01-02,", "amenity": "cafe", "brand": "Starbucks", "brand:wikidata": "Q37158", "brand:wikipedia": "en:Starbucks", "cuisine": "coffee_shop", "name": "Starbucks", "official_name": "Starbucks Coffee", "takeaway": "yes"}}, {"type": "node", "id": 5553930298, "lat": 1.412335, "lon": 103.8681833, "tags": {"amenity": "cafe", "level": "0", "name": "Soek Seng 1954 Bicycle Cafe"}}, {"type": "node", "id": 5575033413, "lat": 1.4642193, "lon": 103.7609594, "tags": {"addr:housenumber": "171-173", "addr:postcode": "80000", "addr:street": "Jalan Ngee Heng", "amenity": "cafe", "cuisine": "ice_cream;chicken;seafood;thai;malaysian;coffee_shop", "name": "Adam Hawa Cafe", "opening_hours": "Mo-Su 17:00-03:00", "phone": "60137133371"}}, {"type": "node", "id": 5575033415, "lat": 1.4641583, "lon": 103.7623193, "tags": {"amenity": "cafe", "description": "Irish Sandwich Cafe", "name": "O'Briens"}}, {"type": "node", "id": 5597659073, "lat": 1.3231197, "lon": 103.8113759, "tags": {"addr:city": "Singapore", "addr:country": "SG", "addr:housename": "Crown Centre", "addr:housenumber": "557", "addr:postcode": "269694", "addr:street": "Bukit Timah Road", "amenity": "cafe", "cuisine": "french", "internet_access": "wlan", "internet_access:fee": "yes", "name": "Crown Bakery", "opening_hours": "Mo-Su 07:00-19:00", "outdoor_seating": "yes", "phone": "+65 6463 3066"}}, {"type": "node", "id": 5627834997, "lat": 1.3238392, "lon": 103.8650988, "tags": {"amenity": "cafe", "description": "Harry Potter Cafe", "name": "Platform 1094"}}, {"type": "node", "id": 5694121613, "lat": 1.322801, "lon": 103.814163, "tags": {"amenity": "cafe", "description": "A Wild Concept", "name": "The Affogato Bar"}}, {"type": "node", "id": 5814008922, "lat": 1.3922296, "lon": 103.8951152, "tags": {"amenity": "cafe", "brand:wikidata": "Q11307696", "cuisine": "ice_cream", "level": "2", "name": "Ch\u00e2terais\u00e9", "smoking": "no", "takeaway": "yes"}}, {"type": "node", "id": 5828042585, "lat": 1.3781884, "lon": 103.7487645, "tags": {"amenity": "cafe", "name": "Foodtastic"}}, {"type": "node", "id": 5853011487, "lat": 1.3738525, "lon": 103.7467448, "tags": {"amenity": "cafe", "name": "7 Stars Food Court", "outdoor_seating": "yes"}}, {"type": "node", "id": 5855528185, "lat": 1.319958, "lon": 103.8438403, "tags": {"addr:housenumber": "238", "addr:street": "Thomson Road", "amenity": "cafe", "name": "Workspace Expresso Bar Novena Square", "opening_hours": "Mo-Su 07:30-21:30"}}, {"type": "node", "id": 5904499442, "lat": 1.3691698, "lon": 103.8484316, "tags": {"addr:city": "Singapore", "addr:postcode": "569933", "addr:street": "Ang Mo Kio Avenue 3", "amenity": "cafe", "brand": "Starbucks", "brand:wikidata": "Q37158", "brand:wikipedia": "en:Starbucks", "cuisine": "coffee_shop", "internet_access:fee": "no", "level": "-1", "name": "Starbucks", "official_name": "Starbucks Coffee", "smoking": "no", "takeaway": "yes"}}, {"type": "node", "id": 5942836036, "lat": 1.3506028, "lon": 103.8726532, "tags": {"addr:city": "Singapore", "addr:housenumber": "#02-K10", "addr:postcode": "556083", "addr:street": "23 Serangoon Central, NEX", "amenity": "cafe", "brand": "The Coffee Bean & Tea Leaf", "brand:wikidata": "Q1141384", "brand:wikipedia": "en:The Coffee Bean & Tea Leaf", "cuisine": "coffee_shop", "level": "1", "name": "The Coffee Bean & Tea Leaf", "takeaway": "yes", "wheelchair": "yes"}}, {"type": "node", "id": 5942836048, "lat": 1.3506075, "lon": 103.8722546, "tags": {"amenity": "cafe", "brand": "Starbucks", "brand:wikidata": "Q37158", "brand:wikipedia": "en:Starbucks", "cuisine": "coffee_shop", "level": "1", "name": "Starbucks", "official_name": "Starbucks Coffee", "takeaway": "yes"}}, {"type": "node", "id": 5951170495, "lat": 1.3510256, "lon": 103.8721487, "tags": {"amenity": "cafe", "level": "-1", "name": "KOI Caf\u00e9", "shop": "tea", "takeaway": "only"}}, {"type": "node", "id": 6012281629, "lat": 1.3504685, "lon": 103.8482843, "tags": {"addr:city": "Singapore", "addr:housenumber": "#01-34", "addr:postcode": "579837", "addr:street": "9 Bishan Place", "amenity": "cafe", "brand": "The Coffee Bean & Tea Leaf", "brand:wikidata": "Q1141384", "brand:wikipedia": "en:The Coffee Bean & Tea Leaf", "cuisine": "coffee_shop", "level": "0", "name": "The Coffee Bean & Tea Leaf", "outdoor_seating": "yes", "takeaway": "yes"}}, {"type": "node", "id": 6012281630, "lat": 1.350596, "lon": 103.8486604, "tags": {"amenity": "cafe", "level": "2", "name": "Fun Toast", "smoking": "no", "takeaway": "yes"}}, {"type": "node", "id": 6016984314, "lat": 1.3948297, "lon": 103.8933876, "tags": {"amenity": "cafe", "level": "0", "name": "Heavenly Wang"}}, {"type": "node", "id": 6016984316, "lat": 1.3948768, "lon": 103.8931386, "tags": {"amenity": "cafe", "level": "0", "name": "Polar Caf\u00e9"}}, {"type": "node", "id": 6016984319, "lat": 1.3927872, "lon": 103.8942212, "tags": {"amenity": "cafe", "level": "0", "name": "Uncle Tony's Tuckshop"}}, {"type": "node", "id": 6016984323, "lat": 1.3950207, "lon": 103.8930257, "tags": {"amenity": "cafe", "level": "0", "name": "Kaffe & Toast"}}, {"type": "node", "id": 6131886932, "lat": 1.3723972, "lon": 103.8938773, "tags": {"amenity": "cafe", "brand": "Starbucks", "brand:wikidata": "Q37158", "brand:wikipedia": "en:Starbucks", "cuisine": "coffee_shop", "level": "1", "name": "Starbucks", "official_name": "Starbucks Coffee", "opening_hours": "08:00-22:00", "smoking": "no", "takeaway": "yes"}}, {"type": "node", "id": 6157230587, "lat": 1.3502695, "lon": 103.8689715, "tags": {"addr:city": "Singapore", "addr:housenumber": "326", "addr:postcode": "550326", "addr:street": "Serangoon Avenue 3", "amenity": "cafe", "cuisine": "crepe;pancake;coffee_shop;ice_cream", "email": "info@cottontailcreamery.com", "name": "Cottontail Creamery", "opening_hours": "Tu-Th 11:00-22:00; Fr 11:00-11:00; Sa 09:00-23:00; Su 09:00-22:00", "phone": "+6581187552"}}, {"type": "node", "id": 6160652585, "lat": 1.4608221, "lon": 103.7675962, "tags": {"addr:housenumber": "146", "addr:postcode": "80300", "addr:street": "Jalan Lumba Kuda", "amenity": "cafe", "cuisine": "chinese", "name": "Hwa Mei Bak Kut Teh \u534e\u7f8e\u8089\u9aa8\u8336", "opening_hours": "Tu-Su 08:30-14:00"}}, {"type": "node", "id": 6191377385, "lat": 1.3503728, "lon": 103.8690692, "tags": {"amenity": "cafe", "name": "Cottontail Creamery", "opening_hours": "Tu-Fr 11:00-22:00; Sa-Su 09:00-22:00"}}, {"type": "node", "id": 6191395085, "lat": 1.3793005, "lon": 103.8882346, "tags": {"amenity": "cafe", "name": "Chef\u2019s Hats"}}, {"type": "node", "id": 6212980051, "lat": 1.3722423, "lon": 103.8938114, "tags": {"amenity": "cafe", "cuisine": "bubble_tea", "level": "0", "name": "Koi"}}, {"type": "node", "id": 6282461685, "lat": 1.3205087, "lon": 103.704955, "tags": {"amenity": "cafe"}}, {"type": "node", "id": 6362350491, "lat": 1.3329432, "lon": 103.8484222, "tags": {"amenity": "cafe", "brand": "Gong Cha", "brand:zh": "\u8ca2\u8336", "cuisine": "bubble_tea", "int_name": "Gong Cha", "level": "0", "name": "Gong Cha (worldwide)", "name:zh": "\u8ca2\u8336", "takeaway": "yes"}}, {"type": "node", "id": 6437694587, "lat": 1.3360247, "lon": 103.8891658, "tags": {"amenity": "cafe", "level": "1", "name": "Rocky Master"}}, {"type": "node", "id": 6437694685, "lat": 1.3359954, "lon": 103.8891019, "tags": {"amenity": "cafe", "level": "1", "name": "Jalan Kayu"}}, {"type": "node", "id": 6490543959, "lat": 1.3263026, "lon": 103.848728, "tags": {"addr:housenumber": "432 #01-436", "addr:street": "Balestier Road", "air_conditioning": "no", "amenity": "cafe", "cuisine": "dessert", "name": "Rochor Beancurd House", "opening_hours": "Mo-Su 13:00-01:00", "outdoor_seating": "yes", "phone": "+65 8288 7020", "takeaway": "yes"}}, {"type": "node", "id": 6493279097, "lat": 1.3962532, "lon": 103.8916157, "tags": {"amenity": "cafe", "level": "0", "name": "Jewel Coffee", "takeaway": "yes"}}, {"type": "node", "id": 6510909287, "lat": 1.3345836, "lon": 103.7429108, "tags": {"addr:housenumber": "3", "addr:street": "Gateway Drive", "amenity": "cafe", "name": "An A\u00e7ai Affair", "opening_hours": "Mo-Su 11:30-22:00"}}, {"type": "node", "id": 6510909586, "lat": 1.3522882, "lon": 103.8349277, "tags": {"addr:housenumber": "215B", "addr:street": "Upper Thomson Road", "amenity": "cafe", "name": "An A\u00e7ai Affair", "opening_hours": "Su-Th 11:00-22:00; Fr-Sa 11:00-23:00"}}, {"type": "node", "id": 6566042604, "lat": 1.4294251, "lon": 103.7823579, "tags": {"addr:city": "singapore", "addr:street": "Woodgrove Drive", "amenity": "cafe", "cuisine": "regional;coffee_shop", "internet_access": "no", "name": "Woodgrove Cafe", "outdoor_seating": "yes"}}, {"type": "node", "id": 6591968020, "lat": 1.4145137, "lon": 103.8719063, "tags": {"amenity": "cafe", "name": "Teh Tarik Express", "opening_hours": "Mo-Su 06:30-20:30"}}, {"type": "node", "id": 6618302988, "lat": 1.3919053, "lon": 103.8951854, "tags": {"amenity": "cafe", "brand": "The Coffee Bean & Tea Leaf", "brand:wikidata": "Q1141384", "brand:wikipedia": "en:The Coffee Bean & Tea Leaf", "cuisine": "coffee_shop", "level": "0", "name": "The Coffee Bean & Tea Leaf", "takeaway": "only"}}, {"type": "node", "id": 6618302989, "lat": 1.3923977, "lon": 103.8950312, "tags": {"addr:city": "Singapore", "addr:housenumber": "1", "addr:postcode": "545078", "addr:street": "Sengkang Square", "addr:unit": "35", "amenity": "cafe", "brand": "Toast Box", "brand:wikidata": "Q100285490", "cuisine": "coffee_shop", "level": "-1", "name": "Toast Box", "opening_hours": "08:00-22:00", "opening_hours:url": "https://compassone.sg/toastbox/", "takeaway": "yes"}}, {"type": "node", "id": 6618302991, "lat": 1.3917001, "lon": 103.8948309, "tags": {"amenity": "cafe", "brand": "Gong Cha", "brand:en": "Gong Cha", "brand:wikidata": "Q5581670", "brand:wikipedia": "en:Gong Cha", "brand:zh": "\u8ca2\u8336", "brand:zh-Hans": "\u8d21\u8336", "brand:zh-Hant": "\u8ca2\u8336", "cuisine": "bubble_tea", "int_name": "Gong Cha", "level": "1", "name": "Gong Cha", "name:en": "Gong Cha", "name:zh": "\u8ca2\u8336", "name:zh-Hans": "\u8d21\u8336", "name:zh-Hant": "\u8ca2\u8336", "takeaway": "yes"}}, {"type": "node", "id": 6618303019, "lat": 1.392315, "lon": 103.8952611, "tags": {"amenity": "cafe", "cuisine": "bubble_tea", "level": "-1", "name": "LiHO", "takeaway": "only"}}, {"type": "node", "id": 6618303024, "lat": 1.3912802, "lon": 103.8952964, "tags": {"amenity": "cafe", "cuisine": "bubble_tea", "level": "0", "name": "Cup Walker", "name:en": "Cup Walker", "opening_hours": "10:00-23:00", "takeaway": "only"}}, {"type": "node", "id": 6618303039, "lat": 1.3920266, "lon": 103.8952649, "tags": {"addr:unit": "19", "amenity": "cafe", "cuisine": "bubble_tea", "level": "0", "name": "KOI Th\u00e9", "takeaway": "only"}}, {"type": "node", "id": 6648980785, "lat": 1.3625671, "lon": 103.7512212, "tags": {"amenity": "cafe", "name": "Happy Sunshine Bubble Tea"}}, {"type": "node", "id": 6648988787, "lat": 1.3592719, "lon": 103.7519176, "tags": {"amenity": "cafe", "name": "Mr Bean"}}, {"type": "node", "id": 6648990286, "lat": 1.3592674, "lon": 103.7517875, "tags": {"amenity": "cafe", "cuisine": "bubble_tea", "name": "Liho"}}, {"type": "node", "id": 6652382687, "lat": 1.3206616, "lon": 103.8427525, "tags": {"amenity": "cafe", "name": "La Cafe & Bar", "outdoor_seating": "yes"}}, {"type": "node", "id": 6652389933, "lat": 1.3234639, "lon": 103.8523301, "tags": {"amenity": "cafe", "cuisine": "pizza", "name": "Abc artisan boulangerie"}}, {"type": "node", "id": 6665009118, "lat": 1.3317711, "lon": 103.8682094, "tags": {"amenity": "cafe", "level": "0", "name": "Kopi & Tarts", "wheelchair": "yes"}}, {"type": "node", "id": 6669181086, "lat": 1.333844, "lon": 103.7419633, "tags": {"amenity": "cafe", "cuisine": "bubble_tea", "name": "Koi Express"}}, {"type": "node", "id": 6718531881, "lat": 1.3267478, "lon": 103.846652, "tags": {"amenity": "cafe", "brand": "LiHO", "cuisine": "bubble_tea"}}, {"type": "node", "id": 6754998597, "lat": 1.3726845, "lon": 103.8937569, "tags": {"amenity": "cafe", "brand": "Gong Cha", "brand:wikidata": "Q5581670", "brand:wikipedia": "en:Gong Cha", "brand:zh": "\u8ca2\u8336", "cuisine": "bubble_tea", "int_name": "Gong Cha", "level": "-1", "name": "Gong Cha", "name:zh": "\u8ca2\u8336", "takeaway": "only"}}, {"type": "node", "id": 6758441419, "lat": 1.3326257, "lon": 103.8486108, "tags": {"addr:city": "Singapore", "addr:housenumber": "#01-16", "addr:postcode": "310490", "addr:street": "Blk 490 Lor 6 Toa Payoh, HDB Hub", "amenity": "cafe", "brand": "Ya Kun Kaya Toast", "cuisine": "coffee_shop", "level": "0", "name": "Ya Kun Family Caf\u00e9", "takeaway": "yes"}}, {"type": "node", "id": 6771178903, "lat": 1.3496782, "lon": 103.8507959, "tags": {"addr:city": "Singapore", "addr:housenumber": "51 ,#01-02", "addr:postcode": "579799", "addr:street": "Bishan Street 13", "amenity": "cafe", "cuisine": "coffee_shop", "level": "0", "name": "Starbucks", "toilets": "no"}}, {"type": "node", "id": 6773411732, "lat": 1.3755344, "lon": 103.8797618, "tags": {"addr:city": "Singapore", "addr:housenumber": "#01-41", "addr:postcode": "538692", "addr:street": "1 Hougang Street 91, Hougang 1", "amenity": "cafe", "cuisine": "coffee_shop", "name": "Starbucks"}}, {"type": "node", "id": 6773529432, "lat": 1.3841755, "lon": 103.7448019, "tags": {"addr:city": "Singapore", "addr:housenumber": "#01-04", "addr:postcode": "689787", "addr:street": "2 Choa Chu Kang Loop, Keart Hong Community Club", "amenity": "cafe", "brand": "Starbucks", "brand:wikidata": "Q37158", "brand:wikipedia": "en:Starbucks", "cuisine": "coffee_shop", "name": "Starbucks", "official_name": "Starbucks Coffee", "outdoor_seating": "yes", "takeaway": "yes"}}, {"type": "node", "id": 6773537855, "lat": 1.3325334, "lon": 103.7465924, "tags": {"addr:city": "Singapore", "addr:housenumber": "1", "addr:postcode": "609606", "addr:street": "Jurong East Street 21 #02-08 Ng Teng Fong General Hospital Tower A", "amenity": "cafe", "brand": "Starbucks", "brand:wikidata": "Q37158", "brand:wikipedia": "en:Starbucks", "cuisine": "coffee_shop", "name": "Starbucks", "official_name": "Starbucks Coffee", "takeaway": "yes"}}, {"type": "node", "id": 6773560014, "lat": 1.3223895, "lon": 103.8442827, "tags": {"addr:city": "Singapore", "addr:housenumber": "38", "addr:postcode": "329563", "addr:street": "Irrawaddy Road #01-14 Mount Elizabeth Novena Hospital", "amenity": "cafe", "cuisine": "coffee_shop", "name": "Starbucks"}}, {"type": "node", "id": 6773560822, "lat": 1.3336388, "lon": 103.7431812, "tags": {"addr:city": "Singapore", "addr:housenumber": "50", "addr:postcode": "608549", "addr:street": "Jurong Gateway Road", "addr:unit": "02", "amenity": "cafe", "brand": "Starbucks", "brand:wikidata": "Q37158", "brand:wikipedia": "en:Starbucks", "cuisine": "coffee_shop", "level": "0", "name": "Starbucks", "official_name": "Starbucks Coffee", "takeaway": "yes"}}, {"type": "node", "id": 6773742169, "lat": 1.3913556, "lon": 103.8759647, "tags": {"addr:city": "Singapore", "addr:housenumber": "33", "addr:postcode": "797653", "addr:street": "Sengkang West Avenue", "amenity": "cafe", "brand": "Starbucks", "brand:wikidata": "Q37158", "brand:wikipedia": "en:Starbucks", "cuisine": "coffee_shop", "level": "0", "name": "Starbucks", "official_name": "Starbucks Coffee", "takeaway": "yes"}}, {"type": "node", "id": 6773784554, "lat": 1.329055, "lon": 103.7753387, "tags": {"addr:city": "Singapore", "addr:housenumber": "461", "addr:postcode": "599491", "addr:street": "Clementi Road, Singapore Institute of Management, Block C Unit C.1.07", "amenity": "cafe", "cuisine": "coffee_shop", "name": "Starbucks"}}, {"type": "node", "id": 6774012792, "lat": 1.3310965, "lon": 103.8685581, "tags": {"addr:city": "Singapore", "addr:housenumber": "51", "addr:postcode": "347697", "addr:street": "Upper Serangoon Road, #01-02 The Poiz Centre", "amenity": "cafe", "brand": "Starbucks", "brand:wikidata": "Q37158", "brand:wikipedia": "en:Starbucks", "cuisine": "coffee_shop", "internet_access": "yes", "internet_access:fee": "customers", "name": "Starbucks", "official_name": "Starbucks Coffee", "outdoor_seating": "yes", "takeaway": "yes", "website": "https://www.starbucks.com.sg/", "wheelchair": "yes"}}, {"type": "node", "id": 6774040322, "lat": 1.3338059, "lon": 103.7426654, "tags": {"addr:city": "Singapore", "addr:housenumber": "3", "addr:postcode": "608532", "addr:street": "Gateway Drive, #02-04/04A", "amenity": "cafe", "brand": "Starbucks", "brand:wikidata": "Q37158", "brand:wikipedia": "en:Starbucks", "cuisine": "coffee_shop", "name": "Starbucks", "official_name": "Starbucks Coffee", "takeaway": "yes"}}, {"type": "node", "id": 6774053274, "lat": 1.3271799, "lon": 103.8468453, "tags": {"addr:city": "Singapore", "addr:housenumber": "20", "addr:street": "Ah Hood Road", "addr:unit": "#01-18A", "amenity": "cafe", "brand": "Starbucks", "brand:wikidata": "Q37158", "brand:wikipedia": "en:Starbucks", "cuisine": "coffee_shop", "name": "Starbucks", "official_name": "Starbucks Coffee", "outdoor_seating": "yes", "takeaway": "yes"}}, {"type": "node", "id": 6776244638, "lat": 1.3203162, "lon": 103.8437113, "tags": {"addr:city": "Singapore", "addr:housenumber": "238", "addr:postcode": "307683", "addr:street": "Thomson Road", "amenity": "cafe", "brand": "The Coffee Bean & Tea Leaf", "brand:wikidata": "Q1141384", "brand:wikipedia": "en:The Coffee Bean & Tea Leaf", "cuisine": "coffee_shop", "level": "1", "name": "The Coffee Bean & Tea Leaf", "takeaway": "yes"}}, {"type": "node", "id": 6776270732, "lat": 1.3214233, "lon": 103.8457059, "tags": {"addr:city": "Singapore", "addr:housenumber": "11", "addr:postcode": "308433", "addr:street": "Jln Tan Tock Seng, #01-16/17 Tan Tock Seng Hospital,", "amenity": "cafe", "brand": "The Coffee Bean & Tea Leaf", "brand:wikidata": "Q1141384", "brand:wikipedia": "en:The Coffee Bean & Tea Leaf", "cuisine": "coffee_shop", "name": "The Coffee Bean & Tea Leaf", "takeaway": "yes"}}, {"type": "node", "id": 6776313440, "lat": 1.4363584, "lon": 103.78637, "tags": {"addr:city": "Singapore", "addr:housenumber": "1", "addr:postcode": "738099", "addr:street": "1 Woodlands Square, #02 - 33 & #02 - K02", "amenity": "cafe", "brand": "The Coffee Bean & Tea Leaf", "brand:wikidata": "Q1141384", "brand:wikipedia": "en:The Coffee Bean & Tea Leaf", "cuisine": "coffee_shop", "name": "The Coffee Bean & Tea Leaf", "takeaway": "yes"}}, {"type": "node", "id": 6776341612, "lat": 1.3335118, "lon": 103.7435987, "tags": {"addr:city": "Singapore", "addr:housenumber": "#01-06", "addr:postcode": "608549", "addr:street": "50 Jurong Gateway Rd, JEM", "amenity": "cafe", "brand": "The Coffee Bean & Tea Leaf", "brand:wikidata": "Q1141384", "brand:wikipedia": "en:The Coffee Bean & Tea Leaf", "cuisine": "coffee_shop", "name": "The Coffee Bean & Tea Leaf", "takeaway": "yes"}}, {"type": "node", "id": 6776341728, "lat": 1.3316409, "lon": 103.8483419, "tags": {"addr:city": "Singapore", "addr:housenumber": "#01-12", "addr:postcode": "310480", "addr:street": "480 Toa Payoh Lorong 6, HDB Hub", "amenity": "cafe", "brand": "The Coffee Bean & Tea Leaf", "brand:wikidata": "Q1141384", "brand:wikipedia": "en:The Coffee Bean & Tea Leaf", "cuisine": "coffee_shop", "name": "The Coffee Bean & Tea Leaf", "takeaway": "yes"}}, {"type": "node", "id": 6776394297, "lat": 1.3648777, "lon": 103.8653315, "tags": {"addr:city": "Singapore", "addr:housenumber": "#B1-01/02, #B1-26", "addr:postcode": "556679", "addr:street": "1 Maju Avenue, myVillage @ Serangoon Garden Way", "amenity": "cafe", "brand": "The Coffee Bean & Tea Leaf", "brand:wikidata": "Q1141384", "brand:wikipedia": "en:The Coffee Bean & Tea Leaf", "cuisine": "coffee_shop", "name": "The Coffee Bean & Tea Leaf", "takeaway": "yes"}}, {"type": "node", "id": 6777999833, "lat": 1.3207567, "lon": 103.8430286, "tags": {"addr:city": "Singapore", "addr:housename": "Royal Square", "addr:housenumber": "103", "addr:postcode": "329566", "addr:street": "Irrawaddy Road", "amenity": "cafe", "cuisine": "bagel", "name": "Two Men Bagel House", "opening_hours": "Mo-Fr 08:00-16:00; Sa,Su 09:00-16:00", "phone": "+65 6251 6601", "website": "http://www.twomenbagels.com/"}}, {"type": "node", "id": 6782117399, "lat": 1.3502185, "lon": 103.7493974, "tags": {"addr:city": "Singapore", "addr:housenumber": "#01-09", "addr:postcode": "658713", "addr:street": "1 Bukit Batok Central Link, West Mall", "amenity": "cafe", "brand": "The Coffee Bean & Tea Leaf", "brand:wikidata": "Q1141384", "brand:wikipedia": "en:The Coffee Bean & Tea Leaf", "cuisine": "coffee_shop", "name": "The Coffee Bean & Tea Leaf", "takeaway": "yes"}}, {"type": "node", "id": 6784080091, "lat": 1.3343724, "lon": 103.747233, "tags": {"addr:city": "Singapore", "addr:housenumber": "#01-126", "addr:postcode": "609601", "addr:street": "IMM Building 2, Jurong East Street 21", "amenity": "cafe", "brand": "The Coffee Bean & Tea Leaf", "brand:wikidata": "Q1141384", "brand:wikipedia": "en:The Coffee Bean & Tea Leaf", "cuisine": "coffee_shop", "name": "The Coffee Bean & Tea Leaf", "takeaway": "yes"}}, {"type": "node", "id": 6784101815, "lat": 1.3854153, "lon": 103.7449222, "tags": {"addr:city": "Singapore", "addr:housenumber": "#01-01", "addr:postcode": "689812", "addr:street": "21 Choa Chu Kang Ave 4, Lot One", "amenity": "cafe", "brand": "The Coffee Bean & Tea Leaf", "brand:wikidata": "Q1141384", "brand:wikipedia": "en:The Coffee Bean & Tea Leaf", "cuisine": "coffee_shop", "name": "The Coffee Bean & Tea Leaf", "takeaway": "yes"}}, {"type": "node", "id": 6784106545, "lat": 1.4287468, "lon": 103.8360926, "tags": {"addr:city": "Singapore", "addr:housenumber": "#01-110", "addr:postcode": "768019", "addr:street": "1 Northpoint Drive, Northpoint City South Wing", "amenity": "cafe", "brand": "The Coffee Bean & Tea Leaf", "brand:wikidata": "Q1141384", "brand:wikipedia": "en:The Coffee Bean & Tea Leaf", "cuisine": "coffee_shop", "name": "The Coffee Bean & Tea Leaf", "takeaway": "yes"}}, {"type": "node", "id": 6784118639, "lat": 1.3334984, "lon": 103.740498, "tags": {"addr:city": "Singapore", "addr:housenumber": "#01-22/23", "addr:postcode": "609731", "addr:street": "2 Jurong East Central 1, Jcube", "amenity": "cafe", "brand": "The Coffee Bean & Tea Leaf", "brand:wikidata": "Q1141384", "brand:wikipedia": "en:The Coffee Bean & Tea Leaf", "cuisine": "coffee_shop", "name": "The Coffee Bean & Tea Leaf", "takeaway": "yes"}}, {"type": "node", "id": 6794327566, "lat": 1.3924506, "lon": 103.8951205, "tags": {"amenity": "cafe", "cuisine": "bubble_tea", "level": "-1", "name": "Chicha San Chen", "name:en": "Chicha San Chen", "name:zh": "\u5403\u8336\u4e09\u5343", "takeaway": "only"}}, {"type": "node", "id": 6798232381, "lat": 1.4357988, "lon": 103.785587, "tags": {"addr:city": "Singapore", "addr:housenumber": "#B1-23", "addr:postcode": "738099", "addr:street": "1 Woodlands Square,", "amenity": "cafe", "brand": "Ya Kun Kaya Toast", "brand:wikidata": "Q8046237", "brand:wikipedia": "en:Ya Kun Kaya Toast", "cuisine": "coffee_shop", "name": "Ya Kun Kaya Toast", "takeaway": "yes"}}, {"type": "node", "id": 6798313729, "lat": 1.3506329, "lon": 103.8490141, "tags": {"addr:city": "Singapore", "addr:housenumber": "#B1-26", "addr:postcode": "579837", "addr:street": "9 Bishan Place, Junction 8 Shopping Centre", "amenity": "cafe", "brand": "Ya Kun Kaya Toast", "brand:wikidata": "Q8046237", "brand:wikipedia": "en:Ya Kun Kaya Toast", "cuisine": "coffee_shop", "name": "Ya Kun Kaya Toast", "takeaway": "yes"}}, {"type": "node", "id": 6798434848, "lat": 1.4292536, "lon": 103.8357926, "tags": {"addr:city": "Singapore", "addr:housenumber": "#B1-22/23/24", "addr:postcode": "769098", "addr:street": "930 Yishun Ave 2, Northpoint City North Wing", "amenity": "cafe", "name": "Ya Kun Kaya Toast"}}, {"type": "node", "id": 6798460725, "lat": 1.4397455, "lon": 103.8009418, "tags": {"addr:city": "Singapore", "addr:housenumber": "#01-18", "addr:postcode": "730676", "addr:street": "Blk 676 Woodlands Drive 71, Kampung Admiralty", "amenity": "cafe", "name": "Ya Kun Kaya Toast"}}, {"type": "node", "id": 6798536677, "lat": 1.4481554, "lon": 103.8196965, "tags": {"addr:city": "Singapore", "addr:housenumber": "#B1-42/45", "addr:postcode": "757713", "addr:street": "30 Sembawang Drive, Sun Plaza", "amenity": "cafe", "name": "Ya Kun Family Cafe"}}, {"type": "node", "id": 6798680644, "lat": 1.3546388, "lon": 103.8307875, "tags": {"addr:city": "Singapore", "addr:unit": "95", "amenity": "cafe", "brand": "Ya Kun Kaya Toast", "brand:wikidata": "Q8046237", "brand:wikipedia": "en:Ya Kun Kaya Toast", "cuisine": "coffee_shop", "level": "0", "name": "Ya Kun Kaya Toast", "takeaway": "yes"}}, {"type": "node", "id": 6798759570, "lat": 1.350333, "lon": 103.8727521, "tags": {"addr:city": "Singapore", "addr:housenumber": "23", "addr:postcode": "556083", "addr:street": "Serangoon Central", "addr:unit": "46", "amenity": "cafe", "level": "-2", "name": "Ya Kun Family Cafe"}}, {"type": "node", "id": 6798845894, "lat": 1.3914308, "lon": 103.87608, "tags": {"addr:city": "Singapore", "addr:housenumber": "33", "addr:postcode": "797653", "addr:street": "Sengkang West Avenue", "amenity": "cafe", "level": "-1", "name": "Ya Kun Family Caf\u00e9"}}, {"type": "node", "id": 6814414619, "lat": 1.3330148, "lon": 103.7400849, "tags": {"addr:city": "Singapore", "addr:housenumber": "#01-08A", "addr:postcode": "609731", "addr:street": "2 Jurong East Central 1, JCube", "amenity": "cafe", "brand": "Ya Kun Kaya Toast", "brand:wikidata": "Q8046237", "brand:wikipedia": "en:Ya Kun Kaya Toast", "cuisine": "coffee_shop", "name": "Ya Kun Kaya Toast", "takeaway": "yes"}}, {"type": "node", "id": 6814425470, "lat": 1.3854675, "lon": 103.7447564, "tags": {"addr:city": "Singapore", "addr:housenumber": "#B1-K4/K5", "addr:postcode": "689812", "addr:street": "21 Choa Chu Kang Avenue 4, Lot One", "amenity": "cafe", "brand": "Ya Kun Kaya Toast", "brand:wikidata": "Q8046237", "brand:wikipedia": "en:Ya Kun Kaya Toast", "cuisine": "coffee_shop", "name": "Ya Kun Kaya Toast", "takeaway": "yes"}}, {"type": "node", "id": 6814426680, "lat": 1.3352884, "lon": 103.7472047, "tags": {"addr:city": "Singapore", "addr:housenumber": "#01-50", "addr:postcode": "609601", "addr:street": "2 Jurong East Street 21, IMM", "amenity": "cafe", "brand": "Ya Kun Kaya Toast", "brand:wikidata": "Q8046237", "brand:wikipedia": "en:Ya Kun Kaya Toast", "cuisine": "coffee_shop", "name": "Ya Kun Kaya Toast", "takeaway": "yes"}}, {"type": "node", "id": 6814428191, "lat": 1.3333637, "lon": 103.7437378, "tags": {"addr:city": "Singapore", "addr:housenumber": "#B1-39", "addr:postcode": "608549", "addr:street": "50 Jurong Gateway Road, Jem", "amenity": "cafe", "brand": "Ya Kun Kaya Toast", "brand:wikidata": "Q8046237", "brand:wikipedia": "en:Ya Kun Kaya Toast", "cuisine": "coffee_shop", "name": "Ya Kun Kaya Toast", "takeaway": "yes"}}, {"type": "node", "id": 6814431922, "lat": 1.3396304, "lon": 103.7067839, "tags": {"addr:city": "Singapore", "addr:housenumber": "#02-K1/K2", "addr:postcode": "648886", "addr:street": "1 Jurong West Central 2, Jurong Point Shopping Mall", "amenity": "cafe", "brand": "Ya Kun Kaya Toast", "brand:wikidata": "Q8046237", "brand:wikipedia": "en:Ya Kun Kaya Toast", "cuisine": "coffee_shop", "name": "Ya Kun Kaya Toast", "takeaway": "yes"}}, {"type": "node", "id": 6814450126, "lat": 1.3498997, "lon": 103.749341, "tags": {"addr:city": "Singapore", "addr:housenumber": "#01-10/41", "addr:postcode": "658713", "addr:street": "1 Bukit Batok Central Link, West Mall", "amenity": "cafe", "name": "Ya Kun Family Cafe"}}, {"type": "node", "id": 6814451192, "lat": 1.333165, "lon": 103.7455252, "tags": {"addr:city": "Singapore", "addr:housenumber": "#02-12", "addr:postcode": "609606", "addr:street": "1 Jurong East Street 21, Tower A, Ng Teng Fong Hospital", "amenity": "cafe", "brand": "Ya Kun Kaya Toast", "brand:wikidata": "Q8046237", "brand:wikipedia": "en:Ya Kun Kaya Toast", "cuisine": "coffee_shop", "name": "Ya Kun Kaya Toast", "takeaway": "yes"}}, {"type": "node", "id": 6814456375, "lat": 1.3234392, "lon": 103.7217852, "tags": {"addr:city": "Singapore", "addr:postcode": "619595", "addr:street": "311 Jalan Ahmad Ibrahim", "amenity": "cafe", "brand": "Ya Kun Kaya Toast", "brand:wikidata": "Q8046237", "brand:wikipedia": "en:Ya Kun Kaya Toast", "cuisine": "coffee_shop", "name": "Ya Kun Kaya Toast", "takeaway": "yes"}}, {"type": "node", "id": 6814457961, "lat": 1.3970189, "lon": 103.7468185, "tags": {"addr:city": "Singapore", "addr:housenumber": "#01-46/47/48", "addr:postcode": "689578", "addr:street": "21 Choa Chu Kang North 6, Yew Tee Point", "amenity": "cafe", "brand": "Ya Kun Kaya Toast", "brand:wikidata": "Q8046237", "brand:wikipedia": "en:Ya Kun Kaya Toast", "cuisine": "coffee_shop", "name": "Ya Kun Kaya Toast", "takeaway": "yes"}}, {"type": "node", "id": 6815649945, "lat": 1.3596546, "lon": 103.8851517, "tags": {"addr:city": "Singapore", "addr:postcode": "530205", "addr:street": "Hougang Street 21", "amenity": "cafe", "brand": "Toast Box", "brand:wikidata": "Q100285490", "cuisine": "coffee_shop", "level": "0", "name": "Toast Box", "takeaway": "yes"}}, {"type": "node", "id": 6815676852, "lat": 1.4293607, "lon": 103.8360354, "tags": {"addr:city": "Singapore", "addr:housenumber": "#01-49", "addr:postcode": "769098", "addr:street": "930 Yishun Avenue 2, Northpoint City North Wing", "amenity": "cafe", "name": "Toast Box"}}, {"type": "node", "id": 6815687284, "lat": 1.3697957, "lon": 103.8481755, "tags": {"addr:city": "Singapore", "addr:housenumber": "53", "addr:postcode": "569933", "addr:street": "Ang Mo Kio Avenue 3", "addr:unit": "2", "amenity": "cafe", "level": "0", "name": "Toast Box"}}, {"type": "node", "id": 6815698651, "lat": 1.4364548, "lon": 103.7860901, "tags": {"addr:city": "Singapore", "addr:housenumber": "#01 - 34", "addr:postcode": "738099", "addr:street": "1 Woodlands Square, Causeway Point", "amenity": "cafe", "name": "Toast Box"}}, {"type": "node", "id": 6815718427, "lat": 1.3504969, "lon": 103.8729158, "tags": {"addr:city": "Singapore", "addr:housenumber": "23", "addr:postcode": "556083", "addr:street": "Serangoon Central", "addr:unit": "58-59", "amenity": "cafe", "brand": "Toast Box", "brand:wikidata": "Q100285490", "cuisine": "coffee_shop", "level": "-2", "name": "Toast Box", "takeaway": "yes"}}, {"type": "node", "id": 6815722362, "lat": 1.4482912, "lon": 103.8191064, "tags": {"addr:city": "Singapore", "addr:housenumber": "#01 - 02", "addr:postcode": "757713", "addr:street": "30 Sembawang Dr, Sun Plaza", "amenity": "cafe", "name": "Toast Box"}}, {"type": "node", "id": 6815726185, "lat": 1.364975, "lon": 103.8652579, "tags": {"addr:city": "Singapore", "addr:housenumber": "#01-01", "addr:postcode": "556679", "addr:street": "1 Maju Ave, MyVillage", "amenity": "cafe", "name": "Toast Box"}}, {"type": "node", "id": 6815781692, "lat": 1.3910825, "lon": 103.8760371, "tags": {"addr:city": "Singapore", "addr:housenumber": "33", "addr:postcode": "797653", "addr:street": "Sengkang West Ave", "amenity": "cafe", "level": "0", "name": "Toast Box"}}, {"type": "node", "id": 6816465461, "lat": 1.3506929, "lon": 103.8485189, "tags": {"addr:city": "Singapore", "addr:housenumber": "9", "addr:postcode": "579837", "addr:street": "Bishan Place", "addr:unit": "35-36", "amenity": "cafe", "level": "0", "name": "Toast Box"}}, {"type": "node", "id": 6816823997, "lat": 1.3306226, "lon": 103.8542873, "tags": {"addr:city": "Singapore", "addr:housenumber": "293", "addr:postcode": "319387", "addr:street": "Lor 6 Toa Payoh, SAFRA", "amenity": "cafe", "brand": "Ya Kun Kaya Toast", "brand:wikidata": "Q8046237", "brand:wikipedia": "en:Ya Kun Kaya Toast", "cuisine": "coffee_shop", "name": "Ya Kun Kaya Toast", "takeaway": "yes"}}, {"type": "node", "id": 6816849548, "lat": 1.3311523, "lon": 103.7950498, "tags": {"addr:city": "Singapore", "addr:postcode": "276473", "addr:street": "8/8A Sixth Avenue", "amenity": "cafe", "name": "Toast Box"}}, {"type": "node", "id": 6816877475, "lat": 1.3210672, "lon": 103.8460072, "tags": {"addr:city": "Singapore", "addr:housenumber": "#01-06", "addr:postcode": "308433", "addr:street": "11 Jln Tan Tock Seng, Tan Tock Seng Hospital", "amenity": "cafe", "name": "Toast Box"}}, {"type": "node", "id": 6816885149, "lat": 1.3323557, "lon": 103.8475767, "tags": {"addr:city": "Singapore", "addr:housenumber": "#01-04", "addr:postcode": "310530", "addr:street": "530 Lorong 6, Toa Payoh Hub", "amenity": "cafe", "level": "0", "name": "Toast Box"}}, {"type": "node", "id": 6816894318, "lat": 1.3267783, "lon": 103.8467662, "tags": {"addr:city": "Singapore", "addr:floor": "1", "addr:housenumber": "20", "addr:postcode": "329984", "addr:street": "Ah Hood Road", "addr:unit": "#01-11/14", "amenity": "cafe", "brand": "Toast Box", "brand:wikidata": "Q100285490", "brand:wikipedia": "BreadTalk", "cuisine": "coffee_shop", "name": "Toast Box", "takeaway": "yes"}}, {"type": "node", "id": 6816915856, "lat": 1.3263833, "lon": 103.6785394, "tags": {"addr:city": "Singapore", "addr:housenumber": "#01-44/46", "addr:postcode": "629117", "addr:street": "1 Joo Koon Circle, Fairprice Hub", "amenity": "cafe", "name": "Toast Box"}}, {"type": "node", "id": 6816924256, "lat": 1.3390633, "lon": 103.7060786, "tags": {"addr:city": "Singapore", "addr:housenumber": "#B1-70/71", "addr:postcode": "648331", "addr:street": "63 Jurong West Central 3, Jurong Point", "amenity": "cafe", "name": "Toast Box"}}, {"type": "node", "id": 6816936319, "lat": 1.3341693, "lon": 103.7427298, "tags": {"addr:city": "Singapore", "addr:housenumber": "#02-02", "addr:postcode": "608532", "addr:street": "3 Gateway Drive, Westgate", "amenity": "cafe", "name": "Toast Box"}}, {"type": "node", "id": 6816945805, "lat": 1.3971989, "lon": 103.7468302, "tags": {"addr:city": "Singapore", "addr:housenumber": "#01-03", "addr:postcode": "689578", "addr:street": "21 Choa Chu Kang North 6, Yew Tee Point", "amenity": "cafe", "brand": "Toast Box", "brand:wikidata": "Q100285490", "cuisine": "coffee_shop", "name": "Toast Box", "opening_hours": "Mo-Fr 07:30-21:30", "takeaway": "yes"}}, {"type": "node", "id": 6875158793, "lat": 1.3419056, "lon": 103.7427107}, {"type": "node", "id": 6875158794, "lat": 1.341881, "lon": 103.7426908}, {"type": "node", "id": 6875158795, "lat": 1.3418637, "lon": 103.7427123}, {"type": "node", "id": 6875158796, "lat": 1.3418883, "lon": 103.7427321}, {"type": "node", "id": 6875158797, "lat": 1.3420735, "lon": 103.7428816}, {"type": "node", "id": 6875158798, "lat": 1.3417678, "lon": 103.7426348}, {"type": "node", "id": 6875158799, "lat": 1.3416685, "lon": 103.7427579}, {"type": "node", "id": 6875158800, "lat": 1.3419742, "lon": 103.7430046}, {"type": "node", "id": 6988855400, "lat": 1.3723487, "lon": 103.893913, "tags": {"amenity": "cafe", "level": "1", "name": "Dessert Story", "name:zh": "\u751c\u54c1\u7269\u8bed"}}, {"type": "node", "id": 7001514291, "lat": 1.3975421, "lon": 103.7469349, "tags": {"air_conditioning": "yes", "amenity": "cafe", "brand": "McCaf\u00e9", "brand:wikidata": "Q3114287", "brand:wikipedia": "en:McCaf\u00e9", "cuisine": "coffee_shop", "name": "McCaf\u00e9", "outdoor_seating": "yes", "takeaway": "yes"}}, {"type": "node", "id": 7049674102, "lat": 1.3231546, "lon": 103.8552719, "tags": {"amenity": "cafe", "cuisine": "bubble_tea;desserts", "name": "i\u00b7tea", "survey:date": "2020-11-29"}}, {"type": "node", "id": 7162281485, "lat": 1.3364926, "lon": 103.7835732, "tags": {"amenity": "cafe", "level": "0", "name": "Kong Cafe"}}, {"type": "node", "id": 7180388860, "lat": 1.3370416, "lon": 103.7793285, "tags": {"addr:city": "Singapore", "addr:country": "SG", "addr:housenumber": "9 King Albert Park", "addr:postcode": "598332", "addr:street": "Bukit Timah Road", "addr:unit": "35", "amenity": "cafe", "cuisine": "bubble_tea", "level": "0-1", "name": "LiHO"}}, {"type": "node", "id": 7260364316, "lat": 1.4093996, "lon": 103.867917, "tags": {"addr:city": "Singapore", "addr:housenumber": "2", "addr:postcode": "798386", "addr:street": "Park Lane", "amenity": "cafe", "email": "info@wheelersestate.com", "name": "Wheelers Market", "opening_hours": "Tu-Fr 11:30-15:00,18:00-22:30; Sa-Su 11:00-15:00,18:00-22:30", "phone": "+65 6262 0001", "website": "https://www.wheelersestate.com/", "wheelchair": "limited"}}, {"type": "node", "id": 7263759554, "lat": 1.3231685, "lon": 103.8543186, "tags": {"amenity": "cafe", "cuisine": "dessert", "name": "Whampoa Soya Bean & Grass Jelly Drinks", "street_vendor": "yes"}}, {"type": "node", "id": 7306117063, "lat": 1.3319357, "lon": 103.849547, "tags": {"amenity": "cafe", "cuisine": "bubble_tea", "level": "0", "name": "Yunique", "name:zh": "\u5fa1\u9ed1\u5802"}}, {"type": "node", "id": 7451039353, "lat": 1.3231406, "lon": 103.854826, "tags": {"amenity": "cafe", "cuisine": "coffee_shop", "name": "Seletar Coffee", "street_vendor": "yes"}}, {"type": "node", "id": 7451054601, "lat": 1.4491785, "lon": 103.8204429, "tags": {"amenity": "cafe", "cuisine": "local"}}, {"type": "node", "id": 7457571855, "lat": 1.4294131, "lon": 103.8357397, "tags": {"addr:city": "Singapore", "addr:housenumber": "930", "addr:postcode": "769098", "addr:street": "Yishun Ave 2 #01-07/08 Northpoint", "amenity": "cafe", "brand": "Starbucks", "brand:wikidata": "Q37158", "brand:wikipedia": "en:Starbucks", "cuisine": "coffee_shop", "internet_access": "wlan", "name": "Starbucks", "official_name": "Starbucks Coffee", "takeaway": "yes"}}, {"type": "node", "id": 7750360800, "lat": 1.3403122, "lon": 103.7063103, "tags": {"amenity": "cafe", "cuisine": "bubble_tea", "name": "Koi The"}}, {"type": "node", "id": 7750360801, "lat": 1.339851, "lon": 103.7068977, "tags": {"amenity": "cafe", "cuisine": "bubble_tea", "name": "LiHO"}}, {"type": "node", "id": 7821676635, "lat": 1.4246704, "lon": 103.7288374, "tags": {"amenity": "cafe", "name": "Fairway Cafe"}}, {"type": "node", "id": 7821677176, "lat": 1.3505826, "lon": 103.723437, "tags": {"amenity": "cafe", "cuisine": "dessert", "name": "Kim Lotus"}}, {"type": "node", "id": 7899660764, "lat": 1.3248355, "lon": 103.8917586, "tags": {"addr:city": "Singapore", "addr:country": "SG", "addr:housenumber": "14", "addr:place": "Lion Building C", "addr:postcode": "409959", "addr:street": "Arumugam Road", "addr:suburb": "MacPherson", "addr:unit": "#01-05", "amenity": "cafe", "name": "20grams Roastery", "opening_hours": "Tu-Fr 08:30-16:00; Sa,Su 10:00-17:00", "shop": "coffee"}}, {"type": "node", "id": 7899660765, "lat": 1.3247752, "lon": 103.8917734, "tags": {"addr:city": "Singapore", "addr:country": "SG", "addr:housenumber": "14", "addr:place": "Lion Building C", "addr:postcode": "409959", "addr:street": "Arumugam Road", "addr:suburb": "MacPherson", "addr:unit": "#01-05", "amenity": "cafe", "cuisine": "coffee_shop; pastry", "facebook": "https://www.facebook.com/20grams/", "instagram": "https://www.instagram.com/20grams.coffee/", "internet_access": "wlan", "internet_access:fee": "no", "name": "20grams Specialty Coffee", "opening_hours": "Tu-Fr 08:30-16:00; Sa,Su 10:00-17:00", "smoking": "no"}}, {"type": "node", "id": 7979306285, "lat": 1.3745434, "lon": 103.886723, "tags": {"amenity": "cafe", "name": "Hiang Ji Roasted Meat"}}, {"type": "node", "id": 8004873586, "lat": 1.352544, "lon": 103.8347488, "tags": {"addr:housenumber": "215R", "addr:street": "Upper Thomson Road", "amenity": "cafe", "name": "One Man Coffee"}}, {"type": "node", "id": 8004875785, "lat": 1.3529312, "lon": 103.8354886, "tags": {"addr:housenumber": "220", "addr:street": "Upper Thomson Road", "amenity": "cafe", "name": "Columbus Coffee Co."}}, {"type": "node", "id": 8011480305, "lat": 1.3279617, "lon": 103.8933729, "tags": {"amenity": "cafe", "cuisine": "grill", "name": "Yan Roaster", "phone": "6747 2623"}}, {"type": "node", "id": 8011485485, "lat": 1.3305231, "lon": 103.8940396, "tags": {"amenity": "cafe", "name": "MEI MEI Roast", "phone": "+65 98208391"}}, {"type": "node", "id": 8013677985, "lat": 1.3538849, "lon": 103.8702678, "tags": {"addr:housenumber": "237", "addr:street": "Serangoon Avenue 3", "amenity": "cafe", "name": "Li Fa Yun Tun Noodles"}}, {"type": "node", "id": 8022178109, "lat": 1.3293161, "lon": 103.8901123, "tags": {"addr:housenumber": "160", "addr:street": "Pays Lebar Road", "amenity": "cafe", "name": "Knots Cafe and Living"}}, {"type": "node", "id": 8050340599, "lat": 1.3594045, "lon": 103.8875445, "tags": {"amenity": "cafe", "level": "0", "name": "Two Cranes", "opening_hours": "Mo-Su 09:00-22:00"}}, {"type": "node", "id": 8108582407, "lat": 1.3213805, "lon": 103.8414933, "tags": {"amenity": "cafe", "cuisine": "ramen", "name": "Menya Kanae Ramen & Cafe"}}, {"type": "node", "id": 8158504617, "lat": 1.3350013, "lon": 103.885973, "tags": {"amenity": "cafe", "cuisine": "coffee_shop", "name": "Alchemist", "payment:cash": "yes", "shop": "coffee"}}, {"type": "node", "id": 8261812713, "lat": 1.357945, "lon": 103.7679244, "tags": {"addr:city": "Singapore", "addr:country": "SG", "addr:housenumber": "392", "addr:street": "Upper Bukit Timah Road", "amenity": "cafe", "name": "The Cat Cafe", "pet": "yes"}}, {"type": "node", "id": 8308624319, "lat": 1.3499505, "lon": 103.7492933, "tags": {"addr:city": "Singapore", "addr:housenumber": "1", "addr:postcode": "658713", "addr:street": "Bukit Batok Central Link", "addr:unit": "#01-32", "amenity": "cafe", "branch": "West Mall", "brand": "Starbucks", "brand:wikidata": "Q37158", "brand:wikipedia": "en:Starbucks", "cuisine": "coffee_shop", "internet_access": "wlan", "level": "0", "name": "Starbucks", "official_name": "Starbucks Coffee", "opening_hours": "Mo-Su 08:00-22:00", "phone": "+65 6974 7161", "takeaway": "yes", "website": "https://www.starbucks.com.sg/"}}, {"type": "node", "id": 8362841948, "lat": 1.326796, "lon": 103.8435526, "tags": {"amenity": "cafe", "capacity": "0", "cuisine": "bubble_tea", "level": "0", "name": "Hey Long Cha", "takeaway": "only", "toilets": "no"}}, {"type": "node", "id": 8409228118, "lat": 1.3805691, "lon": 103.8410896, "tags": {"amenity": "cafe", "name": "Zhen Xin Vegetarian \u771f\u5fc3\u7d20\u98df"}}, {"type": "node", "id": 8413737717, "lat": 1.3810202, "lon": 103.8406301, "tags": {"amenity": "cafe", "name": "Foy Yin Vegetarian"}}, {"type": "node", "id": 8427253617, "lat": 1.3268769, "lon": 103.8459689, "tags": {"amenity": "cafe", "cuisine": "coffee_shop", "name": "Balance Coffee", "opening_hours": "Mo-Su 08:30-18:00"}}, {"type": "node", "id": 8448403914, "lat": 1.3855965, "lon": 103.8973306, "tags": {"amenity": "cafe", "branch": "Compassvale", "cuisine": "bubble_tea", "level": "0", "name": "Qurious Compassvale", "name:zh": "\u5927\u53ef", "takeaway": "only"}}, {"type": "node", "id": 8498985166, "lat": 1.3498099, "lon": 103.8488243, "tags": {"amenity": "cafe", "level": "0", "name": "Dining In The Garden", "short_name": "DIG"}}, {"type": "node", "id": 8499503072, "lat": 1.3489103, "lon": 103.8498144, "tags": {"amenity": "cafe", "cuisine": "bubble_tea", "level": "0", "name": "Tiger Sugar", "name:zh": "\u8001\u864e\u5802", "takeaway": "only"}}, {"type": "node", "id": 8500822017, "lat": 1.4162457, "lon": 103.8351625, "tags": {"amenity": "cafe", "name": "Fu Kang \u5bcc\u5eb7\u7d20\u98df\u8f69 - Yishun", "name:en": "Fu Kang vegetarian", "name:zh": "\u5bcc\u5eb7\u7d20\u98df\u8f69"}}, {"type": "node", "id": 8500823317, "lat": 1.4167155, "lon": 103.8346804, "tags": {"amenity": "cafe", "name": "Keat Lim vegetarian"}}, {"type": "node", "id": 8500823318, "lat": 1.4193723, "lon": 103.8327911, "tags": {"amenity": "cafe", "name": "Ju Fu Yuan vegetarian", "name:zh": "\u805a\u798f\u7f18 \u7d20\u98df"}}, {"type": "node", "id": 8500843017, "lat": 1.4297234, "lon": 103.8357208, "tags": {"amenity": "cafe", "name": "e Veg (vegan) - Northpoint Kopitiam Foodcourt", "name:zh": "\u76ca\u7d20\u98df"}}, {"type": "node", "id": 8500845218, "lat": 1.379691, "lon": 103.8879986, "tags": {"amenity": "cafe", "name": "Econ Vegetarian Delights"}}, {"type": "node", "id": 8500848517, "lat": 1.4282433, "lon": 103.833426, "tags": {"amenity": "cafe", "name": "San De Vegetarian \u4e09\u5fb7", "name:en": "San De Vegetarian", "name:zh": "\u4e09\u5fb7\u7d20\u98df"}}, {"type": "node", "id": 8500859518, "lat": 1.369237, "lon": 103.8744111, "tags": {"amenity": "cafe", "name": "Li Wei Vegetarian \u7b20\u7ef4\u7d20\u98df", "name:en": "Li Wei Vegetarian", "name:zh": "\u7b20\u7ef4\u7d20\u98df"}}, {"type": "node", "id": 8500859717, "lat": 1.3795853, "lon": 103.8881336, "tags": {"amenity": "cafe", "name": "Veggie House \u4e00\u82b3 - Hougang Green"}}, {"type": "node", "id": 8500890217, "lat": 1.3915416, "lon": 103.893453, "tags": {"amenity": "cafe", "name": "SuManYuan \u7d20\u6ee1\u56ed - Sengkang Square", "name:en": "SuManYuan vegetarian", "name:zh": "\u7d20\u6ee1\u56ed\u7d20\u98df"}}, {"type": "node", "id": 8500893117, "lat": 1.39148, "lon": 103.8935855, "tags": {"amenity": "cafe", "name": "Guang Yuan \u5e7f\u7f18 - Sengkang", "name:en": "Guang Yuan vegetarian", "name:zh": "\u5e7f\u7f18\u7d20\u98df"}}, {"type": "node", "id": 8500894717, "lat": 1.3916334, "lon": 103.8935645, "tags": {"amenity": "cafe", "name": "Green Leaf Cuisine Indian vegetarian"}}, {"type": "node", "id": 8516441317, "lat": 1.3918977, "lon": 103.8949363, "tags": {"amenity": "cafe", "name": "Xuan Miao Vegan - Kopitiam Foodcourt", "name:zh": "\u70ab\u5999\u7d20\u98df"}}, {"type": "node", "id": 8520102605, "lat": 1.3485286, "lon": 103.8495708, "tags": {"amenity": "cafe", "cuisine": "bubble_tea", "level": "0", "name": "y\u00f9ng y\u00f9ng", "takeaway": "only"}}, {"type": "node", "id": 8520114132, "lat": 1.3491822, "lon": 103.8491489, "tags": {"amenity": "cafe", "level": "0", "name": "Denzy"}}, {"type": "node", "id": 8520188279, "lat": 1.3501399, "lon": 103.848319, "tags": {"amenity": "cafe", "cuisine": "bubble_tea", "level": "1", "name": "LiHO", "takeaway": "only"}}, {"type": "node", "id": 8548350140, "lat": 1.3739838, "lon": 103.8859499, "tags": {"amenity": "cafe", "cuisine": "bubble_tea", "level": "0", "name": "\u7231\u8336", "takeaway": "only"}}, {"type": "node", "id": 8556122308, "lat": 1.3694984, "lon": 103.8497628, "tags": {"amenity": "cafe", "cuisine": "bubble_tea", "name": "KOI Express", "takeaway": "only"}}, {"type": "node", "id": 8556122309, "lat": 1.3691707, "lon": 103.848167, "tags": {"amenity": "cafe", "brand": "The Coffee Bean & Tea Leaf", "cuisine": "coffee_shop", "level": "-1", "name": "The Coffee Bean & Tea Leaf", "takeaway": "yes"}}, {"type": "node", "id": 8556122313, "lat": 1.3694347, "lon": 103.8488939, "tags": {"amenity": "cafe", "name": "Kaki"}}, {"type": "node", "id": 8556164731, "lat": 1.3693926, "lon": 103.8484335, "tags": {"amenity": "cafe", "cuisine": "bubble_tea", "level": "-1", "name": "\u5403\u8336\u4e09\u5343", "takeaway": "only"}}, {"type": "node", "id": 8556164734, "lat": 1.3691924, "lon": 103.8489506, "tags": {"amenity": "cafe", "level": "0", "name": "Toast Box"}}, {"type": "node", "id": 8556164737, "lat": 1.3692458, "lon": 103.8485452, "tags": {"amenity": "cafe", "level": "1", "name": "Heavenly Wang"}}, {"type": "node", "id": 8556213045, "lat": 1.3696918, "lon": 103.8473865, "tags": {"amenity": "cafe", "brand": "Gong Cha", "brand:zh": "\u8ca2\u8336", "cuisine": "bubble_tea", "int_name": "Gong Cha", "level": "0", "name": "Gong Cha", "name:zh": "\u8ca2\u8336", "takeaway": "only"}}, {"type": "node", "id": 8556213053, "lat": 1.3691293, "lon": 103.8475575, "tags": {"amenity": "cafe", "cuisine": "bubble_tea", "level": "0", "name": "KOI Th\u00e9", "takeaway": "only"}}, {"type": "node", "id": 8556213062, "lat": 1.3691823, "lon": 103.8471154, "tags": {"amenity": "cafe", "cuisine": "ice_cream", "name": "Ji De Chi Dessert"}}, {"type": "node", "id": 8556333486, "lat": 1.371565, "lon": 103.8470748, "tags": {"amenity": "cafe", "cuisine": "bubble_tea", "level": "0", "name": "Yan Xi Tang", "name:zh": "\u5ef6\u79a7\u5802", "takeaway": "only"}}, {"type": "node", "id": 8556333494, "lat": 1.371768, "lon": 103.8476464, "tags": {"amenity": "cafe", "level": "0", "name": "Veggie House & Max See"}}, {"type": "node", "id": 8556405253, "lat": 1.3716981, "lon": 103.847876, "tags": {"amenity": "cafe", "cuisine": "bubble_tea", "level": "0", "name": "LiHO", "takeaway": "only"}}, {"type": "node", "id": 8556405255, "lat": 1.3716866, "lon": 103.8478278, "tags": {"amenity": "cafe", "level": "0", "name": "82 Bunsik"}}, {"type": "node", "id": 8568749527, "lat": 1.3510716, "lon": 103.8355419, "tags": {"amenity": "cafe", "name": "SOD Cafe"}}, {"type": "node", "id": 8577798762, "lat": 1.35947, "lon": 103.8849724, "tags": {"amenity": "cafe", "cuisine": "bubble_tea", "level": "1", "name": "LiHO Tea", "takeaway": "only"}}, {"type": "node", "id": 8577798765, "lat": 1.3595772, "lon": 103.8850426, "tags": {"amenity": "cafe", "cuisine": "bubble_tea", "level": "0", "name": "Tea Tree Cafe", "takeaway": "only"}}, {"type": "node", "id": 8577798768, "lat": 1.3593787, "lon": 103.8848714, "tags": {"amenity": "cafe", "brand": "Ya Kun Kaya Toast", "brand:wikidata": "Q8046237", "brand:wikipedia": "en:Ya Kun Kaya Toast", "cuisine": "coffee_shop", "level": "1", "name": "Ya Kun Kaya Toast", "takeaway": "yes"}}, {"type": "node", "id": 8577798781, "lat": 1.3594347, "lon": 103.8854419, "tags": {"amenity": "cafe", "cuisine": "bubble_tea", "level": "1", "name": "Cup Walker", "takeaway": "only"}}, {"type": "node", "id": 8578225064, "lat": 1.3594179, "lon": 103.8881582, "tags": {"amenity": "cafe", "level": "0", "name": "Hatter Street"}}, {"type": "node", "id": 8578225076, "lat": 1.36053, "lon": 103.8880499, "tags": {"amenity": "cafe", "level": "0", "name": "Sweet Thoughts", "name:zh": "\u601d\u751c"}}, {"type": "node", "id": 8578225079, "lat": 1.3580887, "lon": 103.8849728, "tags": {"amenity": "cafe", "name": "Dat Little Cafe"}}, {"type": "node", "id": 8578225081, "lat": 1.3595113, "lon": 103.8882788, "tags": {"amenity": "cafe", "level": "0", "name": "Knuckles"}}, {"type": "node", "id": 8613927479, "lat": 1.3503761, "lon": 103.848426, "tags": {"amenity": "cafe", "cuisine": "bubble_tea", "level": "1", "name": "KOI Th\u00e9", "takeaway": "only"}}, {"type": "node", "id": 8613927494, "lat": 1.3507228, "lon": 103.8486879, "tags": {"amenity": "cafe", "fixme": "resurvey", "level": "1", "name": "Joe & Dough"}}, {"type": "node", "id": 8613927504, "lat": 1.3510327, "lon": 103.8483066, "tags": {"amenity": "cafe", "cuisine": "bubble_tea", "level": "0", "name": "KOI Express", "takeaway": "only"}}, {"type": "node", "id": 8613927505, "lat": 1.3505733, "lon": 103.8480618, "tags": {"amenity": "cafe", "cuisine": "bubble_tea", "level": "0", "name": "Bober Tea", "takeaway": "only"}}, {"type": "node", "id": 8615039651, "lat": 1.3499657, "lon": 103.8730795, "tags": {"addr:city": "Singapore", "addr:housenumber": "23", "addr:postcode": "556083", "addr:street": "Serangoon Central", "amenity": "cafe", "brand": "Gong Cha", "brand:wikidata": "Q5581670", "brand:wikipedia": "en:Gong Cha", "brand:zh": "\u8ca2\u8336", "cuisine": "bubble_tea", "int_name": "Gong Cha", "level": "-1", "name": "Gong Cha", "name:en": "Gong cha", "name:zh": "\u8ca2\u8336", "takeaway": "yes"}}, {"type": "node", "id": 8620920483, "lat": 1.391546, "lon": 103.8760755, "tags": {"amenity": "cafe", "level": "1", "name": "O'Coffee Club"}}, {"type": "node", "id": 8620920494, "lat": 1.3913009, "lon": 103.8762258, "tags": {"amenity": "cafe", "cuisine": "bubble_tea", "level": "2", "name": "R&B\u5de1\u8336"}}, {"type": "node", "id": 8620920508, "lat": 1.3912811, "lon": 103.8759372, "tags": {"amenity": "cafe", "cuisine": "bubble_tea", "level": "-1", "name": "KOI Express", "takeaway": "only"}}, {"type": "node", "id": 8620921618, "lat": 1.3912101, "lon": 103.8760914, "tags": {"amenity": "cafe", "cuisine": "bubble_tea", "level": "-1", "name": "LiHO - Seletar Mall", "name:zh": "\u91cc\u559d", "takeaway": "yes"}}, {"type": "node", "id": 8627744370, "lat": 1.3323326, "lon": 103.8470278, "tags": {"amenity": "cafe", "level": "0", "name": "Kakak Caf\u00e9", "takeaway": "yes"}}, {"type": "node", "id": 8627880710, "lat": 1.3328714, "lon": 103.8483329, "tags": {"amenity": "cafe", "cuisine": "bubble_tea", "level": "0", "name": "The Whale Tea", "takeaway": "only"}}, {"type": "node", "id": 8627880711, "lat": 1.3317515, "lon": 103.8492229, "tags": {"amenity": "cafe", "cuisine": "bubble_tea", "level": "0", "name": "Hoki", "name:zh": "\u798f\u6c14", "takeaway": "yes"}}, {"type": "node", "id": 8627880715, "lat": 1.3328667, "lon": 103.8483871, "tags": {"amenity": "cafe", "cuisine": "bubble_tea", "level": "0", "name": "LiHO Tea", "takeaway": "only"}}, {"type": "node", "id": 8627880716, "lat": 1.3320208, "lon": 103.8496162, "tags": {"amenity": "cafe", "cuisine": "bubble_tea", "level": "0", "name": "R&B\u5de1\u8336", "takeaway": "only"}}, {"type": "node", "id": 8742755366, "lat": 1.3224011, "lon": 103.7702958, "tags": {"addr:housenumber": "109", "addr:postcode": "120109", "addr:street": "Clementi Street 11", "addr:unit": "#01-03", "amenity": "cafe", "cuisine": "coffee_shop", "instagram": "ollacoffee", "name": "Olla Specialty Coffee", "opening_hours": "Mo-Su 08:00-17:00", "outdoor_seating": "yes", "website": "https://www.ollacoffee.com/"}}, {"type": "node", "id": 8760677529, "lat": 1.3273195, "lon": 103.8455446, "tags": {"addr:housenumber": "530", "addr:postcode": "329857", "addr:street": "Balestier Road", "amenity": "cafe", "description": "Dog cafe", "name": "I.N.U Cafe", "opening_hours": "Mo, Tu, Th-Su 12:00-21:00", "opening_hours:kitchen": "12:00-20:00", "pet": "dog", "website": "https://www.inu-boutique.com/"}}, {"type": "node", "id": 8760679206, "lat": 1.333942, "lon": 103.8480824, "tags": {"amenity": "cafe", "name": "The Larder Cafe"}}, {"type": "node", "id": 8829525624, "lat": 1.4358996, "lon": 103.7856835, "tags": {"amenity": "cafe", "brand": "Gong Cha", "brand:wikidata": "Q5581670", "brand:wikipedia": "en:Gong Cha", "level": "1", "name": "Gong cha", "name:en": "Gong Cha", "name:zh": "\u8ca2\u8336", "takeaway": "yes"}}, {"type": "node", "id": 8895494554, "lat": 1.4433644, "lon": 103.8303872, "tags": {"amenity": "cafe", "branch": "Canberra Plaza", "brand": "Starbucks", "brand:wikidata": "Q37158", "brand:wikipedia": "en:Starbucks", "internet_access": "yes", "internet_access:fee": "no", "level": "0", "name": "Starbucks", "opening_hours": "Su-Th,PH 07:30-22:00; Fr-Sa 07:30-23:00", "phone": "+65 6910 0962", "takeaway": "yes", "website": "https://www.starbucks.com.sg/"}}, {"type": "node", "id": 8912431217, "lat": 1.347994, "lon": 103.7306058, "tags": {"amenity": "cafe", "name": "Smoocht Pantry", "opening_hours": "Mo-Su 12:00-09:00"}}, {"type": "node", "id": 9043834564, "lat": 1.3210709, "lon": 103.8177818, "tags": {"amenity": "cafe", "name": "Little Spot"}}, {"type": "node", "id": 9044588183, "lat": 1.322047, "lon": 103.8153468, "tags": {"amenity": "cafe", "name": "JUJU"}}, {"type": "node", "id": 9050928316, "lat": 1.3353929, "lon": 103.8450286, "tags": {"amenity": "cafe", "name": "Wee Xiang Cafe"}}, {"type": "node", "id": 9061417519, "lat": 1.3728325, "lon": 103.8556851, "tags": {"amenity": "cafe", "name": "AM:PM Cafe"}}, {"type": "node", "id": 9061417520, "lat": 1.3725385, "lon": 103.8557203, "tags": {"amenity": "cafe", "name": "Sweet Cheeks"}}, {"type": "node", "id": 9061436717, "lat": 1.370738, "lon": 103.8570935, "tags": {"amenity": "cafe", "name": "The Castel Cafe"}}, {"type": "node", "id": 9063526147, "lat": 1.3968643, "lon": 103.7467482, "tags": {"addr:city": "Singapore", "addr:housenumber": "21", "addr:postcode": "689578", "addr:street": "Choa Chu Kang North 6", "amenity": "cafe", "cuisine": "coffee_shop;sandwich", "name": "Coffee Bean", "opening_hours": "24/7", "opening_hours:covid19": "same"}}, {"type": "node", "id": 9063560951, "lat": 1.3673828, "lon": 103.7511064, "tags": {"amenity": "cafe", "cuisine": "cafe", "name": "Whisk & Paddle"}}, {"type": "node", "id": 9080382598, "lat": 1.3269565, "lon": 103.7229341}, {"type": "node", "id": 9080382599, "lat": 1.3269581, "lon": 103.7230076}, {"type": "node", "id": 9080382600, "lat": 1.3267344, "lon": 103.7229333}, {"type": "node", "id": 9080382601, "lat": 1.3267313, "lon": 103.7230112}, {"type": "node", "id": 9104606105, "lat": 1.3500919, "lon": 103.8728675, "tags": {"amenity": "cafe", "brand": "Paris Baguette", "brand:wikidata": "Q62605260", "level": "0", "name": "Paris Baguette", "shop": "bakery", "takeaway": "yes"}}, {"type": "node", "id": 9175869117, "lat": 1.3314654, "lon": 103.8075432, "tags": {"amenity": "cafe", "name": "Bearded Bella", "opening_hours": "Mo-Su 07:30-18:00"}}, {"type": "node", "id": 9196769255, "lat": 1.3921303, "lon": 103.8949016, "tags": {"amenity": "cafe", "brand": "The Coffee Bean & Tea Leaf", "brand:wikidata": "Q1141384", "brand:wikipedia": "en:The Coffee Bean & Tea Leaf", "cuisine": "coffee_shop", "highchair": "yes", "level": "2", "name": "The Coffee Bean & Tea Leaf", "note": "separate outlet from CBTL on level 0", "takeaway": "yes"}}, {"type": "node", "id": 9238052068, "lat": 1.3231953, "lon": 103.8552206, "tags": {"amenity": "cafe", "capacity": "0", "cuisine": "bubble_tea", "name": "I-tea", "takeaway": "only"}}, {"type": "node", "id": 9271015950, "lat": 1.3528639, "lon": 103.8359963, "tags": {"amenity": "cafe", "cat": "yes", "description": "caf\u00e9 specially catering to owners of cats or dogs", "dog": "yes", "level": "0", "name": "M\u00e9nage"}}, {"type": "node", "id": 9271147735, "lat": 1.3532278, "lon": 103.8354691, "tags": {"addr:unit": "03", "amenity": "cafe", "level": "0", "name": "Maisone Bowl"}}, {"type": "node", "id": 9271147740, "lat": 1.3533968, "lon": 103.8355333, "tags": {"amenity": "cafe", "level": "-1", "name": "The Black Sheep Caf\u00e9", "opening_hours": "We-Su 11:30-14:30,17:30-22:30; Tu 17:30-22:30; Mo closed"}}, {"type": "node", "id": 9271147741, "lat": 1.3536412, "lon": 103.8360349, "tags": {"addr:unit": "03", "amenity": "cafe", "level": "0", "name": "Wellsmoocht", "opening_hours": "12:00-21:30"}}, {"type": "node", "id": 9271147746, "lat": 1.3531873, "lon": 103.8355273, "tags": {"addr:unit": "02", "amenity": "cafe", "level": "0", "name": "Le Caf\u00e9 Blanc"}}, {"type": "node", "id": 9271267303, "lat": 1.354504, "lon": 103.830405, "tags": {"addr:unit": "43", "amenity": "cafe", "level": "2", "name": "Tingkat PeraMakan"}}, {"type": "node", "id": 9271315617, "lat": 1.3548986, "lon": 103.830805, "tags": {"addr:unit": "09", "amenity": "cafe", "level": "1", "name": "Coffee Hive"}}, {"type": "node", "id": 9271315618, "lat": 1.3545815, "lon": 103.8307309, "tags": {"addr:unit": "96", "amenity": "cafe", "level": "0", "name": "Kong Cafe"}}, {"type": "node", "id": 9271315621, "lat": 1.3546025, "lon": 103.8304317, "tags": {"amenity": "cafe", "level": "0", "name": "Patisserie G"}}, {"type": "node", "id": 9271315622, "lat": 1.3543232, "lon": 103.8302962, "tags": {"amenity": "cafe", "cuisine": "bubble_tea", "level": "0", "name": "LiHO Tea", "takeaway": "only"}}, {"type": "node", "id": 9271315623, "lat": 1.3549127, "lon": 103.8310237, "tags": {"amenity": "cafe", "level": "0", "name": "Rocky Master"}}, {"type": "node", "id": 9271315635, "lat": 1.3541336, "lon": 103.8302435, "tags": {"amenity": "cafe", "cuisine": "bubble_tea", "level": "0", "name": "R&B\u5de1\u8336", "takeaway": "only"}}, {"type": "node", "id": 9271315649, "lat": 1.3549149, "lon": 103.8307504, "tags": {"addr:unit": "08", "alt_name": "Coriander Curry & Assam Fish", "amenity": "cafe", "level": "1", "name": "The Coriander Cafe"}}, {"type": "node", "id": 9271315657, "lat": 1.3544387, "lon": 103.8304673, "tags": {"amenity": "cafe", "level": "2", "name": "Heavenly Wang"}}, {"type": "node", "id": 9271352209, "lat": 1.3547589, "lon": 103.8307056, "tags": {"amenity": "cafe", "level": "2", "name": "Huggs"}}, {"type": "node", "id": 9271817273, "lat": 1.3203206, "lon": 103.8437414, "tags": {"amenity": "cafe", "level": "2", "name": "Old Tea Hut"}}, {"type": "node", "id": 9271817297, "lat": 1.3199657, "lon": 103.8433339, "tags": {"amenity": "cafe", "cuisine": "bubble_tea", "level": "0", "name": "Chicha San Chen", "name:zh": "\u5403\u8336\u4e09\u5343"}}, {"type": "node", "id": 9300401912, "lat": 1.4308164, "lon": 103.7842836}, {"type": "node", "id": 9300417033, "lat": 1.4308046, "lon": 103.7842636}, {"type": "node", "id": 9300417034, "lat": 1.430768, "lon": 103.7843017}, {"type": "node", "id": 9300417035, "lat": 1.4307611, "lon": 103.7842834}, {"type": "node", "id": 9301995000, "lat": 1.4325963, "lon": 103.79858, "tags": {"amenity": "cafe", "cuisine": "bubble_tea", "name": "R&B Tea", "opening_hours": "Mo-Su 11:00-21:00", "opening_hours:covid19": "same", "website": "https://rbtea.com.sg/"}}, {"type": "node", "id": 9331307741, "lat": 1.336826, "lon": 103.7796584, "tags": {"amenity": "cafe", "level": "0-1", "name": "MoMiJi Cafe"}}, {"type": "node", "id": 9331307749, "lat": 1.336976, "lon": 103.7791523, "tags": {"amenity": "cafe", "level": "0", "name": "Camaca"}}, {"type": "node", "id": 9331307752, "lat": 1.3367892, "lon": 103.7789887, "tags": {"amenity": "cafe", "name": "Kindred Folk"}}, {"type": "node", "id": 9331307757, "lat": 1.3368952, "lon": 103.7789554, "tags": {"amenity": "cafe", "level": "0", "name": "The M Plot", "shop": "pastry"}}, {"type": "node", "id": 9331327380, "lat": 1.336872, "lon": 103.7834357, "tags": {"amenity": "cafe", "level": "0", "name": "Cedele", "shop": "bakery"}}, {"type": "node", "id": 9375732117, "lat": 1.4431024, "lon": 103.8306038, "tags": {"amenity": "cafe", "name": "Ya Kun"}}, {"type": "node", "id": 9398676414, "lat": 1.359643, "lon": 103.8338424, "tags": {"addr:city": "Singapore", "addr:country": "SG", "addr:housenumber": "26", "addr:postcode": "573971", "addr:street": "Sin Ming Lane", "amenity": "cafe", "cuisine": "hong_kong", "level": "0", "name": "So Good Char Chan Tang", "opening_hours": "Mo-Su 08:00-20:30", "phone": "+65 65702266", "takeaway": "yes"}}, {"type": "node", "id": 9457431862, "lat": 1.3590412, "lon": 103.8542903, "tags": {"amenity": "cafe", "name": "Professor Brawn Cafe"}}, {"type": "way", "id": 71395038, "nodes": [849538350, 849538345, 849538377, 849538386, 849538350], "tags": {"addr:city": "Singapore", "addr:housenumber": "448", "addr:postcode": "678068", "addr:street": "Upper Bukit Timah Road", "amenity": "cafe", "brand": "Toast Box", "building": "retail", "cuisine": "local;breakfast", "name": "Toast Box"}}, {"type": "way", "id": 71400539, "nodes": [849573507, 849573504, 849573516, 849573490, 849573507], "tags": {"addr:city": "Singapore", "addr:country": "SG", "addr:housenumber": "422", "addr:postcode": "678051", "addr:street": "Upper Bukit Timah Road", "amenity": "cafe", "brand": "Coffee Bean & Tea Leaf", "building": "retail", "cuisine": "coffee_shop", "internet_access": "wlan", "name": "Coffee Bean & Tea Leaf"}}, {"type": "way", "id": 238925193, "nodes": [2467357520, 5143919582, 2467357518, 2467357516, 5143919585, 5143919584, 2467357511, 5143919583, 2467357513, 2467357515, 2467357512, 5143919577, 2467357507, 5143919578, 2467357504, 5143919579, 2467357509, 5143919581, 2467357517, 5143919580, 2467357521, 2467357520], "tags": {"amenity": "cafe", "building": "yes", "name": "Hawk Cafe"}}, {"type": "way", "id": 251582139, "nodes": [2577843571, 2577843573, 2577843575, 2577843572, 2577843571], "tags": {"amenity": "cafe", "building": "yes", "cuisine": "ice_cream", "name": "cool wheels", "source": "Bing"}}, {"type": "way", "id": 453372758, "nodes": [4501136887, 4501136927, 4501136931, 4501136891, 4501136887], "tags": {"addr:city": "Singapore", "addr:housenumber": "16", "addr:postcode": "797873", "addr:street": "The Oval Seletar Aerospace Park", "amenity": "cafe", "building": "yes", "email": "info@chowcutecafe.com", "name": "Chow Cute", "opening_hours": "Tu-Su 10:00-22:00", "phone": "+65 69747916", "website": "https://www.chowcute.com/"}}, {"type": "way", "id": 734132969, "nodes": [6875158795, 6875158794, 6875158793, 6875158796, 6875158797, 6875158800, 6875158799, 6875158798, 6875158795], "tags": {"addr:city": "Singapore", "addr:country": "SG", "addr:housenumber": "242", "addr:postcode": "600242", "addr:street": "Jurong East Avenue 1", "amenity": "cafe", "building": "yes", "cuisine": "plant-based", "diet:allium-free": "yes", "diet:plant-based": "yes", "diet:vegetarian": "yes", "height": "0", "name": "Soul Kind Cafe", "phone": "9835 1197", "residential": "HDB"}}, {"type": "way", "id": 981749580, "nodes": [9080382598, 9080382599, 9080382601, 9080382600, 9080382598], "tags": {"amenity": "cafe", "brand": "Tastebud", "building": "yes", "cuisine": "coffee_shop;asian", "outdoor_seating": "yes"}}, {"type": "way", "id": 1008111899, "nodes": [9300417033, 9300401912, 9300417034, 9300417035, 9300417033], "tags": {"addr:city": "Singapore", "addr:housenumber": "50", "addr:postcode": "739066", "addr:street": "Woodlands Avenue 1", "amenity": "cafe", "building": "yes", "cuisine": "bubble_tea", "name": "Bober Tea", "opening_hours": "11:00 - 22:00", "outdoor_seating": "no", "website": "https://bobertea.sg/"}}]}