{"version": 0.6, "generator": "Overpass API 0.7.57 93a4d346", "osm3s": {"timestamp_osm_base": "2022-03-18T02:26:56Z", "copyright": "The data included in this document is from www.openstreetmap.org. The data is made available under ODbL."}, "elements": [{"type": "node", "id": 2143413288, "lat": 42.78974, "lon": -86.1213381, "tags": {"addr:housenumber": "216", "addr:postcode": "49423", "addr:street": "Van Raalte Avenue", "amenity": "restaurant", "name": "Boatwerks Waterfront Restaurant"}}, {"type": "node", "id": 2144959890, "lat": 42.7905055, "lon": -86.1041475, "tags": {"addr:city": "Holland", "addr:housenumber": "73", "addr:postcode": "49423", "addr:state": "MI", "addr:street": "East 8th Street", "amenity": "restaurant", "contact:phone": "+1-616-393-6340", "contact:website": "http://curraghholland.com/", "cuisine": "irish;pub", "name": "The Curragh", "takeaway": "yes", "theme": "irish"}}, {"type": "node", "id": 2151239192, "lat": 42.7643234, "lon": -86.0968549, "tags": {"amenity": "restaurant"}}, {"type": "node", "id": 2197881358, "lat": 42.7906022, "lon": -86.0951493}, {"type": "node", "id": 2197881367, "lat": 42.7906021, "lon": -86.0952939}, {"type": "node", "id": 2197881369, "lat": 42.7907458, "lon": -86.0952992}, {"type": "node", "id": 2197881381, "lat": 42.7907453, "lon": -86.0951538}, {"type": "node", "id": 2197881392, "lat": 42.7907617, "lon": -86.0952543}, {"type": "node", "id": 2197881409, "lat": 42.7907458, "lon": -86.095259}, {"type": "node", "id": 2197881429, "lat": 42.7907461, "lon": -86.0951766}, {"type": "node", "id": 2258582607, "lat": 42.7649739, "lon": -86.1155937, "tags": {"amenity": "restaurant", "name": "Southside Inn", "wheelchair": "yes"}}, {"type": "node", "id": 2508919123, "lat": 42.7902034, "lon": -86.1034297, "tags": {"addr:city": "Holland", "addr:housenumber": "84", "addr:postcode": "49423", "addr:street": "E 8th Street", "amenity": "restaurant", "cuisine": "american;barbecue;burger;fish_and_chips;pizza;sandwich", "level": "0", "name": "Hops at 84 East", "phone": "+1-616-396-8484", "smoking": "no", "toilets": "yes", "toilets:access": "customers", "website": "https://www.hops84east.com/", "wheelchair": "yes"}}, {"type": "node", "id": 2509553396, "lat": 42.790174, "lon": -86.1054086, "tags": {"addr:city": "Holland", "addr:housenumber": "44", "addr:postcode": "49423", "addr:state": "MI", "addr:street": "East 8th Street", "addr:unit": "100", "amenity": "restaurant", "bar": "yes", "internet_access": "wlan", "level": "-1,0", "name": "Butch's Dry Dock", "website": "https://butchs.net"}}, {"type": "node", "id": 2511001840, "lat": 42.7832765, "lon": -86.10855}, {"type": "node", "id": 2511001841, "lat": 42.7832759, "lon": -86.1084555}, {"type": "node", "id": 2511001842, "lat": 42.7831277, "lon": -86.1084573}, {"type": "node", "id": 2511001843, "lat": 42.7831284, "lon": -86.1085518}, {"type": "node", "id": 3031025508, "lat": 42.7630624, "lon": -86.1170258}, {"type": "node", "id": 3031025526, "lat": 42.7632671, "lon": -86.1170317}, {"type": "node", "id": 3031025527, "lat": 42.7632605, "lon": -86.1174567}, {"type": "node", "id": 3031025528, "lat": 42.763078, "lon": -86.1174515}, {"type": "node", "id": 3031025529, "lat": 42.7630797, "lon": -86.1173417}, {"type": "node", "id": 3031025530, "lat": 42.7630575, "lon": -86.117341}, {"type": "node", "id": 3187334347, "lat": 42.7764718, "lon": -86.0799254}, {"type": "node", "id": 3187334348, "lat": 42.7764789, "lon": -86.0796287}, {"type": "node", "id": 3187334349, "lat": 42.7762031, "lon": -86.0796325}, {"type": "node", "id": 3187334350, "lat": 42.7762006, "lon": -86.0799265}, {"type": "node", "id": 3187338661, "lat": 42.7704352, "lon": -86.0851961}, {"type": "node", "id": 3187338662, "lat": 42.7702812, "lon": -86.0849396}, {"type": "node", "id": 3187338663, "lat": 42.7701635, "lon": -86.0850591}, {"type": "node", "id": 3187338664, "lat": 42.7703154, "lon": -86.0853098}, {"type": "node", "id": 3187338804, "lat": 42.7755494, "lon": -86.0819269}, {"type": "node", "id": 3187338805, "lat": 42.7755509, "lon": -86.0816334}, {"type": "node", "id": 3187338806, "lat": 42.7753686, "lon": -86.0816206}, {"type": "node", "id": 3187338807, "lat": 42.7753675, "lon": -86.0819234}, {"type": "node", "id": 3187347118, "lat": 42.7829515, "lon": -86.0743822, "tags": {"amenity": "restaurant", "cuisine": "mexican", "name": "El Rancho"}}, {"type": "node", "id": 3880931453, "lat": 42.7907389, "lon": -86.0930794}, {"type": "node", "id": 3880931454, "lat": 42.7907418, "lon": -86.0929786}, {"type": "node", "id": 3880931455, "lat": 42.7906707, "lon": -86.0929766}, {"type": "node", "id": 3880931456, "lat": 42.7906692, "lon": -86.0930794}, {"type": "node", "id": 4704692732, "lat": 42.758452, "lon": -86.097825, "tags": {"amenity": "restaurant", "cuisine": "chinese", "delivery": "yes", "name": "China Inn South Express", "smoking": "no", "takeaway": "yes"}}, {"type": "node", "id": 4704729479, "lat": 42.7679775, "lon": -86.1163046, "tags": {"amenity": "restaurant", "delivery": "no", "name": "Baja Grill", "outdoor_seating": "no", "takeaway": "yes", "wheelchair": "yes"}}, {"type": "node", "id": 4704729480, "lat": 42.7681564, "lon": -86.1163192, "tags": {"amenity": "restaurant", "cuisine": "chinese", "name": "China Kitchen", "outdoor_seating": "no", "takeaway": "yes", "wheelchair": "yes"}}, {"type": "node", "id": 4712668605, "lat": 42.7764814, "lon": -86.0797086}, {"type": "node", "id": 4712668606, "lat": 42.7764718, "lon": -86.0797088}, {"type": "node", "id": 4712668607, "lat": 42.7761155, "lon": -86.0785468}, {"type": "node", "id": 4712668608, "lat": 42.7761197, "lon": -86.0778517}, {"type": "node", "id": 4712668610, "lat": 42.7764505, "lon": -86.0785513}, {"type": "node", "id": 4712668611, "lat": 42.7764571, "lon": -86.0778581}, {"type": "node", "id": 4712799994, "lat": 42.7556358, "lon": -86.1156012, "tags": {"amenity": "restaurant", "name": "Big Apple Bagel", "wheelchair": "yes"}}, {"type": "node", "id": 4713743112, "lat": 42.7558305, "lon": -86.1171977, "tags": {"amenity": "restaurant", "cuisine": "american", "name": "Jus' Ribs n More", "takeaway": "yes"}}, {"type": "node", "id": 4737106400, "lat": 42.7599647, "lon": -86.098247}, {"type": "node", "id": 4737106401, "lat": 42.7597257, "lon": -86.0982378}, {"type": "node", "id": 4737106402, "lat": 42.7597286, "lon": -86.0980962}, {"type": "node", "id": 4737106403, "lat": 42.7597098, "lon": -86.0980955}, {"type": "node", "id": 4737106404, "lat": 42.7597113, "lon": -86.0980229}, {"type": "node", "id": 4737106405, "lat": 42.7597283, "lon": -86.0980236}, {"type": "node", "id": 4737106406, "lat": 42.7597299, "lon": -86.0979454}, {"type": "node", "id": 4737106407, "lat": 42.7599708, "lon": -86.0979546}, {"type": "node", "id": 4879127808, "lat": 42.7907618, "lon": -86.0951792}, {"type": "node", "id": 6418603503, "lat": 42.7900633, "lon": -86.108235, "tags": {"addr:city": "Holland", "addr:housenumber": "20", "addr:postcode": "49423", "addr:state": "MI", "addr:street": "West 8th Street", "amenity": "restaurant", "bar": "yes", "level": "0", "name": "Waverly Stone Gastropub"}}, {"type": "node", "id": 6434102890, "lat": 42.7900496, "lon": -86.1099016, "tags": {"addr:city": "Holland", "addr:housenumber": "52", "addr:postcode": "49423", "addr:state": "MI", "addr:street": "W 8th Street", "amenity": "restaurant", "name": "Seventy Six", "outdoor_seating": "yes"}}, {"type": "node", "id": 6450789582, "lat": 42.7822543, "lon": -86.1300264, "tags": {"addr:city": "Holland", "addr:housenumber": "495", "addr:postcode": "49423", "addr:state": "MI", "addr:street": "West 17th Street", "amenity": "restaurant", "cuisine": "mexican", "name": "Margarita\u2019s", "phone": "+1 616 394 3069", "smoking": "no"}}, {"type": "node", "id": 6455929479, "lat": 42.7900267, "lon": -86.1084748, "tags": {"amenity": "restaurant", "cuisine": "american", "name": "Windmill Restaurant", "outdoor_seating": "no"}}, {"type": "node", "id": 7014420031, "lat": 42.7836711, "lon": -86.108733, "tags": {"addr:city": "Holland", "addr:housenumber": "377", "addr:postcode": "49424", "addr:state": "MI", "addr:street": "South River Avenue", "amenity": "restaurant", "cuisine": "chinese", "delivery": "no", "name": "Mr. You", "phone": "+1-616-796-9984", "takeaway": "yes", "wheelchair": "yes"}}, {"type": "node", "id": 7020207310, "lat": 42.7900303, "lon": -86.1108783, "tags": {"addr:city": "Holland", "addr:housenumber": "80", "addr:postcode": "49423", "addr:state": "MI", "addr:street": "West 8th Street", "amenity": "restaurant", "bar": "yes", "brewery": "yes", "name": "HopCat"}}, {"type": "node", "id": 7020615777, "lat": 42.7900492, "lon": -86.1111637, "tags": {"addr:city": "Holland", "addr:housenumber": "90", "addr:postcode": "49423", "addr:state": "MI", "addr:street": "West 8th Street", "amenity": "restaurant", "brewery": "yes", "cuisine": "tapas", "name": "Poquito", "phone": "+1-616-298-2881", "website": "https://www.poquitoholland.com"}}, {"type": "node", "id": 7178195085, "lat": 42.7905446, "lon": -86.1030888, "tags": {"addr:city": "Holland", "addr:housenumber": "99", "addr:postcode": "49423", "addr:state": "MI", "addr:street": "E 8th Street", "amenity": "restaurant", "cuisine": "sushi", "name": "Mizu Sushi", "phone": "+1 (616) 395-0085"}}, {"type": "node", "id": 7979147860, "lat": 42.7900442, "lon": -86.1171901, "tags": {"addr:city": "Holland", "addr:housenumber": "220", "addr:postcode": "49423", "addr:state": "MI", "addr:street": "West 8th Street", "amenity": "restaurant", "bar": "yes", "brewery": "yes", "cuisine": "tacos", "name": "Taco + Bar", "opening_hours": "Tu-Fr 16:00-22:00; Sa 12:00-22:00; Su off", "phone": "+1 (616) 396-5370", "website": "https://taco-bar.net"}}, {"type": "node", "id": 8825736396, "lat": 42.7809273, "lon": -86.0796186, "tags": {"amenity": "restaurant", "name": "The Dutch Shoe"}}, {"type": "way", "id": 209588212, "nodes": [2197881358, 2197881381, 2197881429, 4879127808, 2197881392, 2197881409, 2197881369, 2197881367, 2197881358], "tags": {"amenity": "restaurant", "building": "yes", "cuisine": "mexican", "level": "0", "name": "Taqueria Vallarta"}}, {"type": "way", "id": 243727186, "nodes": [2511001840, 2511001841, 2511001842, 2511001843, 2511001840], "tags": {"addr:city": "Holland", "addr:postcode": "49423", "addr:state": "MI", "addr:street": "West 16th Street", "amenity": "restaurant", "building": "commercial", "capacity": "20", "cuisine": "pizza", "delivery": "yes", "name": "Petrino's Pizza", "opening_hours": "Mo-Th 10:30-01:00; Fr-Sa 10:30-03:00; Su 04:00-23:00", "smoking": "no", "takeaway": "yes"}}, {"type": "way", "id": 299166665, "nodes": [3031025526, 3031025527, 3031025528, 3031025529, 3031025530, 3031025508, 3031025526], "tags": {"addr:city": "Holland", "addr:housenumber": "934", "addr:street": "Washington Avenue", "amenity": "restaurant", "brand": "Village Inn", "brand:wikidata": "Q7930659", "brand:wikipedia": "en:Village Inn", "building": "yes", "cuisine": "american", "name": "Village Inn", "wheelchair": "yes"}}, {"type": "way", "id": 312832112, "nodes": [3187338661, 3187338662, 3187338663, 3187338664, 3187338661], "tags": {"amenity": "restaurant", "building": "yes", "name": "Goog's Pub"}}, {"type": "way", "id": 312832566, "nodes": [3187338804, 3187338805, 3187338806, 3187338807, 3187338804], "tags": {"amenity": "restaurant", "brand": "Bob Evans", "brand:wikidata": "Q4932386", "building": "commercial", "cuisine": "american", "name": "Bob Evans", "wheelchair": "yes"}}, {"type": "way", "id": 312832695, "nodes": [3187334347, 4712668606, 4712668605, 3187334348, 3187334349, 3187334350, 3187334347], "tags": {"amenity": "restaurant", "building": "yes", "cuisine": "american", "name": "Denny's"}}, {"type": "way", "id": 384737446, "nodes": [3880931453, 3880931454, 3880931455, 3880931456, 3880931453], "tags": {"addr:city": "Holland", "addr:housenumber": "321", "addr:postcode": "49423", "addr:state": "MI", "addr:street": "East 8th Street", "amenity": "restaurant", "building": "yes", "cuisine": "greek", "name": "Mr. Kozak's", "smoking": "no"}}, {"type": "way", "id": 477982765, "nodes": [4712668607, 4712668608, 4712668611, 4712668610, 4712668607], "tags": {"amenity": "restaurant", "building": "yes", "cuisine": "chinese", "name": "Grand King Buffett"}}, {"type": "way", "id": 480739609, "nodes": [4737106400, 4737106401, 4737106402, 4737106403, 4737106404, 4737106405, 4737106406, 4737106407, 4737106400], "tags": {"amenity": "restaurant", "building": "yes", "cuisine": "american", "name": "Russ' Restaurant", "outdoor_seating": "no", "smoking": "no", "takeaway": "yes"}}]}